{"type": "FeatureCollection", "features": [{"type": "Feature", "properties": {"nom": "Bayonne", "code": "64102"}, "geometry": {"type": "Polygon", "coordinates": [[[-1.4656274094200725, 43.51652260317555], [-1.46022343998692, 43.519006999936444], [-1.4311182651313608, 43.51461371523744], [-1.4176583960508586, 43.49690657871931], [-1.4345596882217355, 43.49007957303845], [-1.4453652484970108, 43.48193217603169], [-1.4670393045398058, 43.471335422512716], [-1.4845829231208554, 43.45641761666455], [-1.495246983830457, 43.45105523989771], [-1.4974686122165857, 43.46466472341596], [-1.4923668719629204, 43.477343752021056], [-1.4966478827030256, 43.489349666446216], [-1.491819848562848, 43.51180857110314], [-1.4656274094200725, 43.51652260317555]]]}}, {"type": "Feature", "properties": {"nom": "Limoges", "code": "87085"}, "geometry": {"type": "Polygon", "coordinates": [[[1.2724187108423262, 45.92712005975226], [1.3035816781292984, 45.926105471832706], [1.3168755415098323, 45.90836213960734], [1.305683010213085, 45.89638684024943], [1.311125535274762, 45.888425024413365], [1.298185395684033, 45.862633043873835], [1.3068204985657605, 45.84969361606898], [1.2922675335578964, 45.84349390960686], [1.278884678940074, 45.831487056476504], [1.2944463745352655, 45.820117599017685], [1.2977232314655551, 45.80993509471507], [1.2924424025937196, 45.79661504109428], [1.2752141300088145, 45.793299692318875], [1.2704092137577876, 45.788848728355966], [1.263278140968146, 45.795350405363116], [1.2396864201632327, 45.80713554958551], [1.2140600565955775, 45.821369753643154], [1.1796032189676908, 45.82866486954679], [1.1833156165997416, 45.83918212251566], [1.1670407818552386, 45.850394545448914], [1.1641269510890442, 45.86048951200215], [1.1531096956799793, 45.86379583133634], [1.1572711092410137, 45.87661821007479], [1.1462648725966975, 45.87910442838994], [1.166915649299405, 45.880540107685825], [1.1761609333050365, 45.885265379170384], [1.1967838711013705, 45.865951358668184], [1.216634000256647, 45.855741421482904], [1.239683305406018, 45.85247749381805], [1.2550022550046969, 45.85962359337537], [1.2678775044066368, 45.88928388106556], [1.2739343746449951, 45.90922811382349], [1.2664797912130468, 45.918148216995434], [1.2724187108423262, 45.92712005975226]]]}}, {"type": "Feature", "properties": {"nom": "Paris", "code": "75056"}, "geometry": {"type": "Polygon", "coordinates": [[[2.413277245920048, 48.87311881201244], [2.4153191633950377, 48.85517798814065], [2.416339717281352, 48.84923827340741], [2.427571108900117, 48.841567088989564], [2.4478521222931193, 48.844801161592635], [2.4672461270403825, 48.83907028356222], [2.4657291731947244, 48.82622963919072], [2.4612065482284007, 48.81835785327398], [2.4384502049151475, 48.818235158647155], [2.4199584035300545, 48.824082750387156], [2.4006819201840903, 48.82909612370583], [2.3900692378327357, 48.825696809512536], [2.364207015719044, 48.81639743914582], [2.3564634284302906, 48.81595128908539], [2.3318953139887446, 48.81701271305569], [2.3141484235473118, 48.82229055105606], [2.3013208062670962, 48.82513028921857], [2.2893992383002626, 48.828351779161515], [2.2728000131203463, 48.82791922632307], [2.2627983865653443, 48.83391981829658], [2.2506151797178604, 48.84555396898342], [2.2242245702250814, 48.85351605360998], [2.2256770666272003, 48.85940730430812], [2.2317363464837308, 48.869069480870024], [2.2456983089864275, 48.8764609966331], [2.258472586492028, 48.88038999464371], [2.277487004862913, 48.87797011937597], [2.284458220522186, 48.885638370783774], [2.303777114032848, 48.89415199628832], [2.319884458526643, 48.90045886733916], [2.3518725247677046, 48.90152656580722], [2.365853595143894, 48.90161040048378], [2.389444408027745, 48.901148430673594], [2.398651171253517, 48.88941397865482], [2.410694436897797, 48.87847512664254], [2.413277245920048, 48.87311881201244]]]}}, {"type": "Feature", "properties": {"nom": "Antony", "code": "92002"}, "geometry": {"type": "Polygon", "coordinates": [[[2.3207180175230313, 48.74875623508064], [2.314443701257945, 48.7304256109259], [2.303837317833271, 48.72949174787579], [2.297330363998667, 48.73816932540733], [2.2794081603728764, 48.73319644028643], [2.274517532473191, 48.74071323297028], [2.285399109671087, 48.74750672704608], [2.2761460972111487, 48.75665227942786], [2.290253488380403, 48.766603733904724], [2.312439452218861, 48.77216602650963], [2.319928764420131, 48.77071585654119], [2.315884780115488, 48.76677127351222], [2.3087015923862384, 48.75541506900493], [2.3207180175230313, 48.74875623508064]]]}}, {"type": "Feature", "properties": {"nom": "Marcq-en-Barœul", "code": "59378"}, "geometry": {"type": "Polygon", "coordinates": [[[3.1206132258054318, 50.70837912439003], [3.131592546540264, 50.6918659185774], [3.114109409455507, 50.688311733214384], [3.1196657950265942, 50.67851629281296], [3.1116790133016825, 50.668948741445334], [3.1187031230775006, 50.65366863208538], [3.119326063852407, 50.64849898372375], [3.103158310903011, 50.6522735940261], [3.0835361322576422, 50.651552470657144], [3.068989348649586, 50.66648505681335], [3.0844350057933783, 50.68243081375808], [3.105976016877278, 50.7031789645501], [3.1206132258054318, 50.70837912439003]]]}}, {"type": "Feature", "properties": {"nom": "Neuilly-sur-Seine", "code": "92051"}, "geometry": {"type": "Polygon", "coordinates": [[[2.284458220522186, 48.885638370783774], [2.277487004862913, 48.87797011937597], [2.258472586492028, 48.88038999464371], [2.2456983089864275, 48.8764609966331], [2.253756950262125, 48.88688989505178], [2.271065300760704, 48.898400020270955], [2.284458220522186, 48.885638370783774]]]}}, {"type": "Feature", "properties": {"nom": "Beynes", "code": "78062"}, "geometry": {"type": "Polygon", "coordinates": [[[1.838398670530836, 48.871249754022664], [1.8557755581551552, 48.871552045216816], [1.8746632722209768, 48.877028568925205], [1.8831026195664469, 48.87453533814814], [1.9127169447188033, 48.86084935759397], [1.9008327237115756, 48.84679915712111], [1.8932786620467676, 48.8473778647787], [1.8820915893247256, 48.834609966105404], [1.8748621433779786, 48.83437128383239], [1.8478410790551192, 48.833925154597125], [1.841537490679323, 48.828818416443276], [1.8392190750695177, 48.830154089753634], [1.8476661897219508, 48.850463956343305], [1.8375210341484856, 48.85681465938863], [1.838398670530836, 48.871249754022664]]]}}, {"type": "Feature", "properties": {"nom": "Saint-Germain-en-Laye", "code": "78551"}, "geometry": {"type": "Polygon", "coordinates": [[[2.03988510194635, 48.91687015189674], [2.060309512975231, 48.931021160634955], [2.0701573713839, 48.946300909797735], [2.0737504005782066, 48.96457554988951], [2.0894698969005607, 48.97476795280262], [2.0845873794095793, 48.98517142105984], [2.110005708588576, 48.98172961683584], [2.121102835144433, 48.98719806454278], [2.14235526394939, 48.98606591987375], [2.169385435367955, 48.97472748740646], [2.1729051756279083, 48.96386156363893], [2.146890183750105, 48.96534298862533], [2.1278535262676503, 48.94319130300211], [2.1104073897571616, 48.92234286801458], [2.1041277218698275, 48.907403156382216], [2.0995789728285663, 48.88958899430316], [2.0918152525905724, 48.885878978752984], [2.075082276134266, 48.88740570375197], [2.0544527470352407, 48.89766810449447], [2.0521504790712775, 48.9079924062743], [2.03988510194635, 48.91687015189674]]]}}, {"type": "Feature", "properties": {"nom": "Mériel", "code": "95392"}, "geometry": {"type": "Polygon", "coordinates": [[[2.193145931475593, 49.07385868960017], [2.206045508395271, 49.08682981730505], [2.2360175529884216, 49.08744663449742], [2.2165364642354772, 49.06569597264727], [2.2026844907201, 49.06502038712103], [2.188902436293082, 49.07214864786509], [2.193145931475593, 49.07385868960017]]]}}, {"type": "Feature", "properties": {"nom": "Ollioules", "code": "83090"}, "geometry": {"type": "Polygon", "coordinates": [[[5.82302165611655, 43.12039940750905], [5.825104995161961, 43.14373404445894], [5.816108906312177, 43.15832727747373], [5.844700995819116, 43.15374245372619], [5.882196146227048, 43.16039705581772], [5.887336881138229, 43.116138976633955], [5.885617660124503, 43.117139074769604], [5.849220200992912, 43.121482845302125], [5.82302165611655, 43.12039940750905]]]}}, {"type": "Feature", "properties": {"nom": "Dijon", "code": "21231"}, "geometry": {"type": "Polygon", "coordinates": [[[4.978519714321398, 47.303662031405494], [4.967544283080221, 47.315933533585444], [4.962711296413586, 47.32520631778379], [4.994278623313449, 47.330524999514765], [5.007916893511124, 47.325445168960755], [5.0171790093567665, 47.339305743088254], [5.03949027719008, 47.335872300294696], [5.0347008670533, 47.353849680405744], [5.041680050834943, 47.37253902532703], [5.051201895780873, 47.377495278247785], [5.055578365019144, 47.37234804911474], [5.055441834102682, 47.36186842014369], [5.082463517592105, 47.35020263595282], [5.06930526093666, 47.33885694088892], [5.072870822100144, 47.32072854554513], [5.088058106920809, 47.31861026251472], [5.089198642174013, 47.30742292126431], [5.101246127838603, 47.30502609290092], [5.096906405639799, 47.3017094850526], [5.08957553656523, 47.28648720953708], [5.063510556448048, 47.299276850603526], [5.028706681122399, 47.29660892509514], [5.00976449515591, 47.30262988945312], [5.002081301013539, 47.30001607204894], [4.978519714321398, 47.303662031405494]]]}}, {"type": "Feature", "properties": {"nom": "Solliès-Toucas", "code": "83131"}, "geometry": {"type": "Polygon", "coordinates": [[[5.97187388010357, 43.196415318019554], [5.964436746673404, 43.19773610280333], [5.93958936927158, 43.215968438795244], [5.929259815955324, 43.23044439539738], [5.9452719978159925, 43.238578054271876], [5.970247026687329, 43.23989212199652], [5.975184293696572, 43.22675788388398], [5.983342584915077, 43.22122177295243], [6.004398299401225, 43.222320956629524], [6.018135972699697, 43.23104738037637], [6.035300982553125, 43.220349018001336], [6.037292513737327, 43.204864069530096], [6.028450300163851, 43.19839744892217], [6.02073109563567, 43.181493083784126], [6.008937852461811, 43.17930237748741], [5.996696176429536, 43.192749171704214], [5.97187388010357, 43.196415318019554]]]}}, {"type": "Feature", "properties": {"nom": "Bordeaux", "code": "33063"}, "geometry": {"type": "Polygon", "coordinates": [[[-0.5738778170841996, 44.810795852605004], [-0.5893450841402976, 44.825392125613135], [-0.6030472386960702, 44.81847663846226], [-0.6106485986170402, 44.822474304509214], [-0.6116913098031097, 44.83829369465284], [-0.6268492411617091, 44.83880845103343], [-0.6383364255674625, 44.86066702174277], [-0.6310506968923502, 44.87164910381073], [-0.6165526494412091, 44.862192022524354], [-0.5940310520024236, 44.853098406301406], [-0.5760881682094617, 44.86917996772355], [-0.5808855556008284, 44.90940222743421], [-0.5477355411394155, 44.91666696512532], [-0.5355325510757143, 44.88909927380261], [-0.5415131922280467, 44.86896399660197], [-0.5378468614775107, 44.86126717472337], [-0.5422304636346048, 44.84238149451891], [-0.5481213490862137, 44.835974642185825], [-0.5376632156377844, 44.82277223406445], [-0.5565867105754448, 44.81284802499104], [-0.5738778170841996, 44.810795852605004]]]}}, {"type": "Feature", "properties": {"nom": "Amiens", "code": "80021"}, "geometry": {"type": "Polygon", "coordinates": [[[2.276233611329087, 49.9506844255463], [2.2956274687795495, 49.93855368609905], [2.3008552162284297, 49.928818962161415], [2.3262759017173233, 49.93541153364433], [2.3395775753779366, 49.92817177569054], [2.3333302783975514, 49.91214762197938], [2.320223873656334, 49.903945445844265], [2.3308791010848373, 49.89115775565586], [2.343144110576774, 49.88033608328083], [2.345788300657127, 49.8660300869233], [2.32679213737444, 49.85944945831048], [2.319827871163495, 49.847075778055185], [2.3043191411200037, 49.85956609344581], [2.278573789784129, 49.86701718793343], [2.272375206668987, 49.87478743454418], [2.25199014625287, 49.87328979804417], [2.2571243769416394, 49.887281970316025], [2.2289936100851926, 49.895669222590115], [2.226666073253733, 49.9060934842842], [2.241403910486909, 49.91869081436327], [2.2547374882618203, 49.919320784784425], [2.2431338774367595, 49.92305847186883], [2.2654651211633356, 49.93763969160518], [2.276233611329087, 49.9506844255463]]]}}, {"type": "Feature", "properties": {"nom": "Nice", "code": "06088"}, "geometry": {"type": "Polygon", "coordinates": [[[7.185162169320988, 43.746686868323735], [7.199390250530951, 43.76084516945833], [7.217864615240188, 43.75288320630826], [7.22216470974899, 43.74126540905829], [7.242460351712144, 43.7512987943627], [7.248634960248134, 43.75158057947275], [7.2536788729361055, 43.74117341381706], [7.279486138032961, 43.74304518155273], [7.298092915399973, 43.739058500633256], [7.296559225288498, 43.755043032078085], [7.296237635426847, 43.758705553000794], [7.307180741668934, 43.75344261045476], [7.30757806335268, 43.73709729074125], [7.292852673941923, 43.73366006271551], [7.302239650774215, 43.721646029416334], [7.320853007977951, 43.723449539952846], [7.323423477176158, 43.72293285235354], [7.3015871754639985, 43.70701881411426], [7.308745254221966, 43.69237084093013], [7.2972056863415204, 43.68614102906016], [7.28517362064961, 43.6943230498485], [7.262425630462369, 43.69425981574543], [7.24382000023942, 43.68938268481802], [7.230465906783024, 43.67806260865922], [7.225884891654834, 43.66225535365977], [7.206455679516468, 43.64563646874049], [7.1992506817564275, 43.65483579368586], [7.200444006590698, 43.658754388586985], [7.187084298866188, 43.69467333807922], [7.184380452818368, 43.718674427921705], [7.182763748919723, 43.741426464401904], [7.185162169320988, 43.746686868323735]]]}}, {"type": "Feature", "properties": {"nom": "Madeleine", "code": "59368"}, "geometry": {"type": "Polygon", "coordinates": [[[3.0595954643890204, 50.65104577111716], [3.061672273101567, 50.6640300690864], [3.068989348649586, 50.66648505681335], [3.0835361322576422, 50.651552470657144], [3.0756044991767495, 50.64306806131001], [3.0595954643890204, 50.65104577111716]]]}}, {"type": "Feature", "properties": {"nom": "Argentré-du-Plessis", "code": "35006"}, "geometry": {"type": "Polygon", "coordinates": [[[-1.194915620229824, 48.02083503824616], [-1.199362134874902, 48.04216915655346], [-1.170811603039855, 48.04973614369562], [-1.1683623377098211, 48.0653855058727], [-1.1510881654575986, 48.07841338322637], [-1.1432976361881855, 48.08349972213512], [-1.1265785487223872, 48.07846407049367], [-1.1122227297077822, 48.07974133284803], [-1.0964576552114256, 48.072730887297475], [-1.0855538838705132, 48.06090022660413], [-1.0881152003223467, 48.04673630023709], [-1.0809104267957024, 48.03695729177784], [-1.090921459944884, 48.02689568563301], [-1.0879749705619277, 48.01866291821933], [-1.1181120355728413, 48.03226357448321], [-1.1314892208627305, 48.03169532381052], [-1.1533457949193002, 48.02721734868108], [-1.1552529232330084, 48.01865668935169], [-1.194915620229824, 48.02083503824616]]]}}, {"type": "Feature", "properties": {"nom": "Cherbourg-en-Cotentin", "code": "50129"}, "geometry": {"type": "Polygon", "coordinates": [[[-1.5647274164569034, 49.58070139590575], [-1.575299871129272, 49.58282356492838], [-1.5859890984296952, 49.593672060765776], [-1.6012535250266289, 49.59896328675483], [-1.620498685118808, 49.60712127778274], [-1.6489909227379111, 49.61298717821828], [-1.6644887785038254, 49.608827815577015], [-1.6726269253674493, 49.612394658147764], [-1.6626079750501126, 49.621196723335466], [-1.6881700817557126, 49.629952426394624], [-1.7039055871060682, 49.64012824739562], [-1.7004836093706763, 49.654497173066524], [-1.7310825193134418, 49.644499810220196], [-1.7362824408767905, 49.650500615889115], [-1.7222926999374497, 49.66290079071237], [-1.7044368394327216, 49.670812798938606], [-1.6867443842807595, 49.67306751903843], [-1.6724172017020642, 49.65765473955586], [-1.63285141798923, 49.66064611404181], [-1.6246789365290826, 49.6464653967003], [-1.6083417488910845, 49.644998018206884], [-1.5998987238767703, 49.66072796788171], [-1.5845725781309, 49.65200920076849], [-1.5692922565054324, 49.65695032475437], [-1.5488007190546185, 49.654613984075006], [-1.534971718417125, 49.64373604577582], [-1.5334057751263757, 49.63356055776865], [-1.547127854953729, 49.62765592356726], [-1.5530730675014257, 49.61674879754903], [-1.5475374837851525, 49.60760404582172], [-1.5647274164569034, 49.58070139590575]]]}}, {"type": "Feature", "properties": {"nom": "Nanterre", "code": "92050"}, "geometry": {"type": "Polygon", "coordinates": [[[2.2316248960533365, 48.900653602651886], [2.2337852355532384, 48.89567616526661], [2.2236115320568155, 48.882768095525115], [2.2077596181075054, 48.874228360744034], [2.169348728527837, 48.895813132622216], [2.1742893143827486, 48.89906692555045], [2.200591009269503, 48.908679329890454], [2.220399433954489, 48.920617920983446], [2.229103616457338, 48.90602436095539], [2.2316248960533365, 48.900653602651886]]]}}, {"type": "Feature", "properties": {"nom": "Omissy", "code": "02571"}, "geometry": {"type": "Polygon", "coordinates": [[[3.2854507030079154, 49.89727340367569], [3.3068394940687837, 49.892658058377876], [3.3192935573548907, 49.882915096507595], [3.310502897250673, 49.863982435198864], [3.2818918885800166, 49.874868055925454], [3.276525432908022, 49.884986728731555], [3.2854507030079154, 49.89727340367569]]]}}, {"type": "Feature", "properties": {"nom": "Marseille", "code": "13055"}, "geometry": {"type": "Polygon", "coordinates": [[[5.424573833805061, 43.383412460437356], [5.437828391522901, 43.3895591038525], [5.447505381533795, 43.38697356435981], [5.4642503099186905, 43.36040201130017], [5.451867643317109, 43.34509471821267], [5.4549580850308175, 43.33571831514124], [5.47245844923686, 43.31684209324067], [5.500465817250765, 43.3154688987824], [5.522810234530915, 43.32075500227052], [5.532491414221039, 43.29953081722605], [5.5184206182217155, 43.28800635711449], [5.505249361708303, 43.28316448144816], [5.51444218734739, 43.267686849296155], [5.51964138731547, 43.24432786774995], [5.507661901746892, 43.22617526771954], [5.516732672410128, 43.21715347793066], [5.510185668165215, 43.19789390805423], [5.491769502860908, 43.2035584644096], [5.454401745873978, 43.21064244401662], [5.445353928588449, 43.20471930051131], [5.423026264006651, 43.210818245537105], [5.391051809155225, 43.21212309136667], [5.363644360087066, 43.20712491164297], [5.3408672183955, 43.21464461315383], [5.348353034439003, 43.22982142946681], [5.372523588800765, 43.24507767770401], [5.3760532728962245, 43.25516037336914], [5.366243376033931, 43.26929493817153], [5.345688435376646, 43.282363417695436], [5.361483045321279, 43.29981014837471], [5.364413487886784, 43.312140196877614], [5.323859848409952, 43.356938601132626], [5.311030077911202, 43.36087640052119], [5.28225027986334, 43.35364847976776], [5.278797321327975, 43.380468891254154], [5.297003871091413, 43.38898505648433], [5.321472594529026, 43.370043708159145], [5.3503725949277685, 43.38249320503568], [5.368522164526407, 43.38963978448368], [5.378384883814955, 43.384311326075704], [5.381454401011453, 43.37021238358842], [5.4097090253380875, 43.37586909342557], [5.424573833805061, 43.383412460437356]]]}}, {"type": "Feature", "properties": {"nom": "Saint-Jean-Saint-Germain", "code": "37222"}, "geometry": {"type": "Polygon", "coordinates": [[[1.1207591887422448, 47.08567228113138], [1.0942585976665613, 47.074075718129706], [1.0808507874687856, 47.07152581488339], [1.0582767073768526, 47.082343000055154], [1.0511528726080708, 47.07169969803422], [1.0219219319336965, 47.0659569986429], [1.0040559009684744, 47.05936349519656], [1.0246220267134407, 47.09300309418658], [1.0599163168315067, 47.111711482352575], [1.0679670814561508, 47.1095768205449], [1.0677635715822333, 47.104214991408824], [1.096131904802801, 47.09121303892337], [1.1207591887422448, 47.08567228113138]]]}}, {"type": "Feature", "properties": {"nom": "Cavaillon", "code": "84035"}, "geometry": {"type": "Polygon", "coordinates": [[[5.021897823107092, 43.87908455285664], [5.069135337632074, 43.87341898110456], [5.085640853770996, 43.853425712391214], [5.0864681449530496, 43.84678423777105], [5.06935543912047, 43.83072633530529], [5.092333920354375, 43.82184387238193], [5.04262447389624, 43.80650196182339], [5.035353802322928, 43.820140797004925], [5.029533445304739, 43.82779291313872], [4.997651289476421, 43.844855123089125], [4.991499893039552, 43.850719855259], [4.973807284829002, 43.882647468719334], [4.99514770395622, 43.890703514655435], [4.998608235218826, 43.88288032373035], [5.021897823107092, 43.87908455285664]]]}}, {"type": "Feature", "properties": {"nom": "Montpellier", "code": "34172"}, "geometry": {"type": "Polygon", "coordinates": [[[3.9332517936441467, 43.629062478065926], [3.939358584475331, 43.61390155144538], [3.9391294675594786, 43.59612287978745], [3.9002681135574218, 43.58914344010462], [3.867401369269562, 43.57406653987995], [3.860837838515616, 43.5667719061784], [3.8358473427867885, 43.59481152391363], [3.8162536221186096, 43.591221803899785], [3.819517162516138, 43.60563020655817], [3.8097475439744115, 43.6240025619196], [3.815829447053313, 43.631923802774786], [3.8074553990661397, 43.639005020290305], [3.8280096495175657, 43.63980425192107], [3.838859180727674, 43.65051919020133], [3.8570343694242784, 43.65351793575015], [3.871280086620983, 43.64819460257399], [3.8858122280804785, 43.645539615233105], [3.8974004161667373, 43.62310598933731], [3.918795445840543, 43.61904443789922], [3.9332517936441467, 43.629062478065926]]]}}, {"type": "Feature", "properties": {"nom": "Angers", "code": "49007"}, "geometry": {"type": "Polygon", "coordinates": [[[-0.5148809538953245, 47.45789291440812], [-0.5094414032318364, 47.44767679403549], [-0.5188964976810866, 47.45086931352199], [-0.5343835247820953, 47.442785659340124], [-0.5521358990903578, 47.44109147061038], [-0.5652156455563165, 47.43765455823316], [-0.5891699303100962, 47.45104724056273], [-0.5899272656457155, 47.45877341672705], [-0.6135575853258638, 47.45493302791447], [-0.6056423880737432, 47.46523506076755], [-0.6096391811527173, 47.48882838343466], [-0.5832727159491454, 47.4823462642078], [-0.5693767751437047, 47.514011478313186], [-0.5414045851103769, 47.51759554064579], [-0.5309094248194696, 47.526041630170454], [-0.5237089331714637, 47.51690676651777], [-0.5336093140364839, 47.49987419334686], [-0.5085483840811743, 47.4893778655982], [-0.5194172888755386, 47.465860916128364], [-0.5148809538953245, 47.45789291440812]]]}}, {"type": "Feature", "properties": {"nom": "Roche-sur-Yon", "code": "85191"}, "geometry": {"type": "Polygon", "coordinates": [[[-1.3352185690854748, 46.6898246168281], [-1.3420236306895241, 46.66677003194359], [-1.3228173136563426, 46.651760265947246], [-1.3395566714012168, 46.64393111210828], [-1.3614200981056657, 46.630024533468344], [-1.3883168213987032, 46.61845460224576], [-1.393673225521235, 46.612829177057506], [-1.4228997112565578, 46.624771336782906], [-1.4408311909719178, 46.642849287186685], [-1.4521769709849568, 46.64902341062525], [-1.485823792405504, 46.66028329959059], [-1.5061730245919909, 46.66982936473546], [-1.4920511258100229, 46.68552637620938], [-1.4737526168273969, 46.696135490545615], [-1.450357088277685, 46.697591693356095], [-1.4421327931468984, 46.7063293275495], [-1.4277569720130894, 46.70720098397589], [-1.415401710327275, 46.719374012056086], [-1.4016174102299421, 46.71788378073085], [-1.4045436954077264, 46.709997806228884], [-1.3833640390696247, 46.70861795452389], [-1.365392491443597, 46.69087989947473], [-1.3504990843953861, 46.694241604918325], [-1.3352185690854748, 46.6898246168281]]]}}, {"type": "Feature", "properties": {"nom": "Strasbourg", "code": "67482"}, "geometry": {"type": "Polygon", "coordinates": [[[7.7575918941305515, 48.4931926603036], [7.7572632061518485, 48.50645387384594], [7.765996520340112, 48.51701423717689], [7.756500030247871, 48.53854050671554], [7.730281255781372, 48.551158766043876], [7.71696280322111, 48.56243015040281], [7.704010419381378, 48.557590809917656], [7.701551506480378, 48.568303607273194], [7.6903309218217055, 48.583246118710726], [7.6880510346850865, 48.59812333266034], [7.708653473002321, 48.603932501021674], [7.741228896766722, 48.59845688103888], [7.762861859513638, 48.60267483867671], [7.77296559836106, 48.61899520043459], [7.7888407169075835, 48.628639363246265], [7.802788672705512, 48.629230608595016], [7.7934064055100905, 48.63617840140352], [7.8359227766494, 48.63367401277482], [7.828710432304629, 48.61770955816417], [7.804169862129346, 48.59233465434716], [7.800241352793423, 48.57868703631089], [7.805560968054686, 48.55039024785821], [7.803047415926719, 48.53734300560642], [7.807039561191584, 48.5211033498163], [7.794703889606317, 48.50209025324464], [7.770759941680216, 48.49202406021183], [7.7575918941305515, 48.4931926603036]]]}}, {"type": "Feature", "properties": {"nom": "Lille", "code": "59350"}, "geometry": {"type": "Polygon", "coordinates": [[[3.120538387518754, 50.61846089305646], [3.0968795596968985, 50.61714441689101], [3.086245018886493, 50.617924068329735], [3.0714597624363793, 50.60659859869122], [3.054628580301429, 50.60077361700827], [3.0490585799063656, 50.600802868619276], [3.028010221093639, 50.60968532936747], [3.0131348279473116, 50.62558160077598], [2.9717365348286653, 50.633646994340516], [2.970015035131062, 50.63366453905253], [2.9703925814867462, 50.639497879558625], [2.9692949990539144, 50.65739191489278], [2.970720426800011, 50.65810120106095], [2.9836933402500394, 50.66122650679796], [3.002738469896423, 50.65235229890966], [3.0289981162363624, 50.635208346015744], [3.0458160616427747, 50.6480722308396], [3.0595954643890204, 50.65104577111716], [3.0756044991767495, 50.64306806131001], [3.0835361322576422, 50.651552470657144], [3.103158310903011, 50.6522735940261], [3.0962686078596175, 50.6369333626013], [3.1168138502108036, 50.63645804723837], [3.120538387518754, 50.61846089305646]]]}}, {"type": "Feature", "properties": {"nom": "Grenoble", "code": "38185"}, "geometry": {"type": "Polygon", "coordinates": [[[5.688184016424673, 45.20562304445309], [5.678057601895965, 45.21317300376059], [5.681063795262586, 45.21339818041564], [5.707750332788485, 45.20569082578393], [5.725825071817773, 45.20496272376752], [5.743265168265957, 45.19651701536769], [5.7489327143051465, 45.188953657589124], [5.752619066632496, 45.174312255099], [5.743019769913857, 45.166376944209716], [5.7317550586119825, 45.154796797304456], [5.728015108631317, 45.15904169110728], [5.699648054668818, 45.16045248080589], [5.700746110656062, 45.17262462852534], [5.701360820549421, 45.187961814147094], [5.699881384391373, 45.19741248066088], [5.688184016424673, 45.20562304445309]]]}}, {"type": "Feature", "properties": {"nom": "Anzin-Saint-Aubin", "code": "62037"}, "geometry": {"type": "Polygon", "coordinates": [[[2.7294343895482704, 50.3104917934951], [2.7186953244862417, 50.31542385064514], [2.7380206153797673, 50.3283323310195], [2.743307925013662, 50.33943146846126], [2.7462269751157997, 50.33361968447287], [2.7597059334412544, 50.310195364380206], [2.751841314991731, 50.301461665751035], [2.7294343895482704, 50.3104917934951]]]}}, {"type": "Feature", "properties": {"nom": "Ulis", "code": "91692"}, "geometry": {"type": "Polygon", "coordinates": [[[2.1912696590168763, 48.66826423744232], [2.1640951347694126, 48.675057031592985], [2.1612889849724706, 48.675568037477184], [2.1608544714128928, 48.68910258318944], [2.174244984346053, 48.69029344278195], [2.2047072212611045, 48.691058156266934], [2.20472891733492, 48.685166582862045], [2.2113866058146376, 48.67878834637867], [2.1954565975004243, 48.66887725311641], [2.1912696590168763, 48.66826423744232]]]}}, {"type": "Feature", "properties": {"nom": "Chalais", "code": "36036"}, "geometry": {"type": "Polygon", "coordinates": [[[1.1830684363378359, 46.52455234226723], [1.1775794943455584, 46.54353250529223], [1.179396597812459, 46.553216739032145], [1.1954250204479748, 46.560036537781365], [1.20492197556325, 46.58010872654018], [1.2275625077746362, 46.58640581951486], [1.238154105274852, 46.56914147332463], [1.2601793337151215, 46.567280733431986], [1.2707368001072108, 46.571205443175444], [1.275170941664886, 46.568102036953505], [1.2705146536423817, 46.559286417414306], [1.2498151085324143, 46.54113862976355], [1.244930233387399, 46.524626627027864], [1.23427770457147, 46.51309619409994], [1.2534895825898669, 46.50388016010543], [1.2402914315795215, 46.492905735157116], [1.2302781947892782, 46.50127155422312], [1.1830684363378359, 46.52455234226723]]]}}, {"type": "Feature", "properties": {"nom": "Orléans", "code": "45234"}, "geometry": {"type": "Polygon", "coordinates": [[[1.9368597724385697, 47.86374941541438], [1.9343168301515778, 47.85582823635074], [1.9466363176375505, 47.84354999361399], [1.9476759602690132, 47.820076181842765], [1.927953399688745, 47.81461394400106], [1.9228493615483075, 47.823820105733155], [1.9145898489128128, 47.831664718825074], [1.9156294592144616, 47.83705685036133], [1.9325091752618033, 47.85194598857564], [1.9148716316578558, 47.861738981463304], [1.9140618441229194, 47.86994912378661], [1.8995664502266034, 47.880029847623966], [1.8852957772061436, 47.879778173306676], [1.8867327137991823, 47.88973751604629], [1.8769155484539293, 47.8958184252714], [1.8856031794647727, 47.911679148984874], [1.885272515761265, 47.92678777240042], [1.89506716410758, 47.93230753418843], [1.8978975330377987, 47.92112862975827], [1.9178380431310351, 47.919666955072415], [1.9369382960418144, 47.933359869635034], [1.9437668360301812, 47.92335910635031], [1.9379863508004225, 47.900400943203934], [1.915189223788754, 47.89597129065631], [1.9121042694548753, 47.88976836608167], [1.9368597724385697, 47.86374941541438]]]}}, {"type": "Feature", "properties": {"nom": "Brest", "code": "29019"}, "geometry": {"type": "Polygon", "coordinates": [[[-4.5544581913058835, 48.36126512513253], [-4.566675945355172, 48.36571633017849], [-4.560495571405722, 48.377653799087206], [-4.568412064127884, 48.39283732547865], [-4.525209157688554, 48.40942314140969], [-4.500675407122984, 48.4349033859011], [-4.519647628990252, 48.44899908825288], [-4.5020511512855865, 48.45494168338665], [-4.492681807483139, 48.45383627243749], [-4.4730862458001015, 48.42752210223848], [-4.459647144467706, 48.42449359697391], [-4.459400320243257, 48.4132222309269], [-4.4338982471302995, 48.39602289223975], [-4.435282416373567, 48.38339288656854], [-4.45811688138233, 48.385871469342284], [-4.481868355569504, 48.382522420333174], [-4.5070286895447, 48.375178986581524], [-4.538022709122905, 48.357127206507], [-4.5544581913058835, 48.36126512513253]]]}}, {"type": "Feature", "properties": {"nom": "Beausset", "code": "83016"}, "geometry": {"type": "Polygon", "coordinates": [[[5.800895132216059, 43.158966593821724], [5.78700158460154, 43.162512726639605], [5.791967169065472, 43.18258110883582], [5.793343502173985, 43.21307539724133], [5.806644536112736, 43.25050690319802], [5.8250171908144415, 43.246994427847646], [5.8488327900016195, 43.23830367847449], [5.859551522779348, 43.221566337338295], [5.849007229305185, 43.212412220170954], [5.85551195865206, 43.200118349886644], [5.834866536299912, 43.18031000903177], [5.815062252944037, 43.17015414955412], [5.800895132216059, 43.158966593821724]]]}}, {"type": "Feature", "properties": {"nom": "Arras", "code": "62041"}, "geometry": {"type": "Polygon", "coordinates": [[[2.8008039110566254, 50.27705665069473], [2.784265852990432, 50.27163250288388], [2.7820818206910833, 50.27779714172193], [2.7547021467942585, 50.28387820035499], [2.740099403139721, 50.281370123643626], [2.739342731052653, 50.29225075262144], [2.7264541901846466, 50.293803067739056], [2.7294343895482704, 50.3104917934951], [2.751841314991731, 50.301461665751035], [2.770938325649886, 50.30044813745357], [2.779399942578967, 50.29838952045829], [2.788548700663484, 50.29105655104246], [2.80757874723066, 50.28983520507348], [2.8008039110566254, 50.27705665069473]]]}}, {"type": "Feature", "properties": {"nom": "Mulhouse", "code": "68224"}, "geometry": {"type": "Polygon", "coordinates": [[[7.368263638989168, 47.759620456743], [7.355524514003417, 47.747061009189416], [7.354947706370122, 47.73152398172944], [7.344518727317598, 47.72194225864409], [7.322997019304491, 47.733773300225444], [7.307210885971733, 47.72857792525987], [7.2862504572254325, 47.72925807045739], [7.2827121314198555, 47.74572065470565], [7.29807874305705, 47.755288452383354], [7.315010752126631, 47.76101085476045], [7.312051394093595, 47.77661465845371], [7.339350897009401, 47.78308709691756], [7.340850883608542, 47.767879059817204], [7.368263638989168, 47.759620456743]]]}}, {"type": "Feature", "properties": {"nom": "Nancy", "code": "54395"}, "geometry": {"type": "Polygon", "coordinates": [[[6.13689618643786, 48.700636198560346], [6.149237683675836, 48.706395918113955], [6.165201701008282, 48.70432592881526], [6.179999028648135, 48.70857707659197], [6.192449220822995, 48.70309540349225], [6.203872433272411, 48.698648147891284], [6.21263640583821, 48.67309868111662], [6.194104654815902, 48.67189548544031], [6.186732297338332, 48.67737703136446], [6.1622899850190676, 48.6681350760131], [6.161299860319447, 48.67917962229248], [6.153055016005732, 48.69055118799788], [6.135975921558123, 48.68972349085736], [6.13689618643786, 48.700636198560346]]]}}, {"type": "Feature", "properties": {"nom": "Havre", "code": "76351"}, "geometry": {"type": "Polygon", "coordinates": [[[0.08336559846983971, 49.50217159181826], [0.08109297971953214, 49.51738775916615], [0.0669160603873519, 49.51867338835674], [0.07802653846644458, 49.53997694433818], [0.10170658445005341, 49.53005016824512], [0.11991979764615911, 49.53123054639797], [0.12497245247939172, 49.52735751993368], [0.15427622743506728, 49.524352670381056], [0.157004071365667, 49.53597258182926], [0.18264148749459877, 49.52479026606077], [0.18497353377393347, 49.5094574947464], [0.19522480614719323, 49.500783047275824], [0.19492543897165177, 49.45160966097289], [0.17389529453881375, 49.45649876013907], [0.12124538314126981, 49.46319090812617], [0.11486160132884496, 49.469991139793514], [0.09027197399997772, 49.48238083770633], [0.09400517456697899, 49.49301996285181], [0.08336559846983971, 49.50217159181826]]]}}, {"type": "Feature", "properties": {"nom": "Rouen", "code": "76540"}, "geometry": {"type": "Polygon", "coordinates": [[[1.0301084573715948, 49.432319093735664], [1.0515978410388391, 49.453866977162555], [1.0620629288363472, 49.45576108684642], [1.082122360650568, 49.45096031815592], [1.0950674129253517, 49.45684213508855], [1.105603487268056, 49.45461594546513], [1.1135521477451205, 49.449588499496585], [1.1406829924681305, 49.465057915026215], [1.1507844636635607, 49.45495465521431], [1.1336549747431226, 49.43939015513911], [1.1446548301518311, 49.43485719304177], [1.143081491028518, 49.43108400883812], [1.1117549061125975, 49.433224202750395], [1.1098641712506314, 49.425346280159026], [1.0915929469051346, 49.425572031435046], [1.0765537249688972, 49.417493940638956], [1.067522174509765, 49.42313118507775], [1.0721121600272883, 49.437481734408244], [1.0511454037863799, 49.43522199394453], [1.038463957224043, 49.4272131041997], [1.0301084573715948, 49.432319093735664]]]}}, {"type": "Feature", "properties": {"nom": "Reims", "code": "51454"}, "geometry": {"type": "Polygon", "coordinates": [[[3.9965064201991276, 49.29795965954277], [4.010024651219131, 49.30316045519005], [4.028611665865538, 49.29763645703284], [4.027400255796948, 49.2844222143383], [4.038576430887754, 49.27364607445007], [4.0509735538635425, 49.270446044456015], [4.061555021916905, 49.27657477134211], [4.083088578748162, 49.274684241213805], [4.081085320890642, 49.27285017707016], [4.083928731650053, 49.25120242563688], [4.0951991541167345, 49.24900579091365], [4.0904898271227905, 49.23604786925842], [4.087093790618048, 49.2319068027112], [4.123412203077898, 49.220128411393986], [4.116533724932634, 49.213053462156516], [4.097848887242329, 49.226333915014024], [4.088310782242731, 49.220585303989026], [4.072701399607042, 49.223755152010725], [4.04566356441095, 49.2271384582224], [4.030610073324546, 49.21386378759105], [4.027053858691866, 49.204103012585826], [4.013463898476371, 49.21221999918133], [4.011160269186034, 49.213021555083024], [4.01396261526789, 49.22295985895682], [3.995722922633741, 49.22952229174097], [3.9987600169445967, 49.242479669137914], [3.9983664500523477, 49.255519196032616], [3.9992155405614795, 49.27386154324209], [3.993097015815289, 49.28221904536024], [3.9863189050920003, 49.293566257109326], [3.9965064201991276, 49.29795965954277]]]}}, {"type": "Feature", "properties": {"nom": "Nîmes", "code": "30189"}, "geometry": {"type": "Polygon", "coordinates": [[[4.449629158405512, 43.83072429253208], [4.411774425308466, 43.83439802535124], [4.414654795897413, 43.823677190546974], [4.398091389830595, 43.81331539688429], [4.385171963160976, 43.80282398877657], [4.370273581502772, 43.797693166833255], [4.391516126937586, 43.78470681750131], [4.4049630344642505, 43.77126810807542], [4.409536437775867, 43.757771955024815], [4.39663905119725, 43.74216117389338], [4.385146917725345, 43.742280950584764], [4.367289228587191, 43.75394546368745], [4.34329488311787, 43.75684497516853], [4.333662352382787, 43.78913759835819], [4.316644338358659, 43.79983014097923], [4.30415629701197, 43.81345339536998], [4.293200404650038, 43.825824082859995], [4.284618803084271, 43.8510991572264], [4.239094542952977, 43.85717881594888], [4.2372793140912, 43.87444398553076], [4.248743461802492, 43.894024346381556], [4.256217755675035, 43.89601772009246], [4.271477743518411, 43.907766822439314], [4.284571325548797, 43.90818063238135], [4.313144738435692, 43.89743606118061], [4.340034804802056, 43.897608896888876], [4.345216820710944, 43.90834151914166], [4.386257727503565, 43.90297683979438], [4.397195804100965, 43.92060511673826], [4.4049197915754945, 43.91164016626795], [4.407986630400514, 43.895651200121854], [4.425740225142452, 43.89631189647207], [4.418254135971146, 43.87254841160478], [4.420086045000671, 43.85365026214975], [4.429834190415649, 43.851533817290914], [4.434147067117977, 43.83952445912678], [4.449629158405512, 43.83072429253208]]]}}, {"type": "Feature", "properties": {"nom": "Lyon", "code": "69123"}, "geometry": {"type": "Polygon", "coordinates": [[[4.840545818902087, 45.7080543357698], [4.823045774244711, 45.714607866039806], [4.820679418424766, 45.71888853770637], [4.81348672101376, 45.747764638028514], [4.80243575114347, 45.751724851060246], [4.777466807170913, 45.74706813664258], [4.771706663391205, 45.750788663843274], [4.77959413053306, 45.75440244807691], [4.792456184124705, 45.77329404002807], [4.788669959401589, 45.78953107305802], [4.802671531060323, 45.79169520271396], [4.818258955113442, 45.79936255046895], [4.836941309915749, 45.808175474868236], [4.841484607606883, 45.80344465236939], [4.819173058002421, 45.78958391855367], [4.831239471782833, 45.781885664594654], [4.860397467148797, 45.78645282101344], [4.8583293880244005, 45.772435371592955], [4.878749185263709, 45.75481189065746], [4.899011615863642, 45.752454846606646], [4.88698963279672, 45.7259495659131], [4.880831231197007, 45.72146771467981], [4.853673737843045, 45.72958287536812], [4.849720337364401, 45.71905518551699], [4.840545818902087, 45.7080543357698]]]}}, {"type": "Feature", "properties": {"nom": "Metz", "code": "57463"}, "geometry": {"type": "Polygon", "coordinates": [[[6.2037192873157645, 49.06352851542181], [6.1855366293570935, 49.0671527424576], [6.1726995669457585, 49.06327212201013], [6.164706806369412, 49.08130027179541], [6.1792129380983996, 49.08467889273759], [6.160239518952859, 49.10846706153169], [6.148485914448248, 49.11894342628802], [6.136595644308225, 49.12927800690448], [6.135878691115003, 49.13781776367601], [6.139123560510934, 49.14293391248301], [6.161797904870906, 49.1418373431583], [6.1797029633589, 49.14622318114295], [6.198847471942118, 49.14372705353126], [6.193293234269668, 49.12556424525448], [6.203106337411486, 49.12189191301029], [6.218823851484571, 49.13765124764087], [6.233702000559806, 49.120713029735064], [6.24272738707625, 49.11968708253155], [6.25366342301121, 49.10856421909336], [6.24519349616587, 49.09799673210313], [6.254113596540684, 49.09295915606124], [6.2391789568115845, 49.08683851171765], [6.21122100155143, 49.085708224332286], [6.211566726219984, 49.07658323958165], [6.1963794381190205, 49.0735327772262], [6.2037192873157645, 49.06352851542181]]]}}, {"type": "Feature", "properties": {"nom": "Nantes", "code": "44109"}, "geometry": {"type": "Polygon", "coordinates": [[[-1.5932753985976056, 47.27349080963175], [-1.583936634465051, 47.27289568752663], [-1.566745490478241, 47.27118024149622], [-1.5505934755809878, 47.25654449223654], [-1.5390519486396534, 47.25522983595141], [-1.5363667361909774, 47.26828402044654], [-1.5265737468244027, 47.28019109057408], [-1.532423986869411, 47.29502135015156], [-1.5108376733500768, 47.29507872362515], [-1.5095392095852902, 47.27710395178549], [-1.4951221148299303, 47.26237097565532], [-1.4953517476942555, 47.250874197631845], [-1.4788172788992202, 47.228079149366714], [-1.4809496046342512, 47.22634650933963], [-1.5114034543405852, 47.21683187363527], [-1.5278147034013567, 47.2048921844116], [-1.5256235616299048, 47.191911424808985], [-1.512932655716489, 47.1891788123017], [-1.5181958701375495, 47.18065921221813], [-1.5308327820206529, 47.182771085115306], [-1.548974688744478, 47.19787629736316], [-1.578938127714426, 47.197361889568725], [-1.595911704429038, 47.19006976270909], [-1.6089180636795388, 47.184538300246054], [-1.6418065015580225, 47.19116857239828], [-1.6193071407826587, 47.1936832638323], [-1.6031694193450658, 47.22400475477427], [-1.5838494640561094, 47.23556562622254], [-1.5900204041472543, 47.239451376874506], [-1.5768485137568975, 47.2547166636408], [-1.5932753985976056, 47.27349080963175]]]}}, {"type": "Feature", "properties": {"nom": "Mans", "code": "72181"}, "geometry": {"type": "Polygon", "coordinates": [[[0.14023436875329442, 48.030450812437785], [0.16684120468930883, 48.02625707824414], [0.1824288597136074, 48.03524163380986], [0.19343872333733622, 48.02180867215627], [0.21809774607020638, 48.02406916118753], [0.24397086664990156, 48.0187711175323], [0.24735407191617004, 48.006099942335844], [0.23575869284930642, 48.001253662923574], [0.24317056981729784, 47.98825387275578], [0.2550626347092729, 47.98059901841618], [0.23555627999594891, 47.96913811396125], [0.24261443012627326, 47.96336975795537], [0.2271827401922918, 47.95746866698705], [0.23346334216237147, 47.94449655163161], [0.21936560540463776, 47.941903451447786], [0.21692102909627065, 47.92795975269533], [0.20679765339260772, 47.94311363183425], [0.1782893425308654, 47.954467689579545], [0.16858178321747705, 47.97056942608265], [0.15257689095114435, 47.9836814075296], [0.16542724378131324, 47.992821318746174], [0.1625062665104799, 48.007658512073036], [0.14022302203355055, 48.014755025297156], [0.14023436875329442, 48.030450812437785]]]}}, {"type": "Feature", "properties": {"nom": "Toulon", "code": "83137"}, "geometry": {"type": "Polygon", "coordinates": [[[5.985570226763832, 43.123182303562274], [5.979060325609182, 43.10654012210086], [5.940943551094233, 43.10775854379546], [5.9343322330861765, 43.11860446694359], [5.9206305576319345, 43.12390905489088], [5.899891552467621, 43.11317366571534], [5.887336881138229, 43.116138976633955], [5.882196146227048, 43.16039705581772], [5.902225960674004, 43.1714347468258], [5.9253766975640305, 43.16331144570513], [5.9424912489378965, 43.164249875812274], [5.954721356732235, 43.160071996809386], [5.974817108831931, 43.15061737479828], [5.97754837603146, 43.13515037025973], [5.985570226763832, 43.123182303562274]]]}}, {"type": "Feature", "properties": {"nom": "Poitiers", "code": "86194"}, "geometry": {"type": "Polygon", "coordinates": [[[0.42857569539485085, 46.60205910071221], [0.45020679017097326, 46.59009225870993], [0.4200031733648425, 46.58410024733744], [0.41597010786840233, 46.5782253883956], [0.3939375584063187, 46.57490600755938], [0.4000578010012935, 46.5568644695163], [0.38993082840842086, 46.549345367277944], [0.3683940176102386, 46.56049217195415], [0.3531041076626852, 46.566301995663565], [0.3264990740080106, 46.55877323650359], [0.31294893242457184, 46.54962640996564], [0.31502116165553484, 46.54308901927784], [0.3025708318230437, 46.54295828891051], [0.29456534186347505, 46.54929226849542], [0.2913811981568771, 46.554235338644155], [0.307218845547649, 46.56171777772477], [0.30322589582783366, 46.56902066797114], [0.3137080859836441, 46.5736818826475], [0.31429659637897056, 46.587174021225444], [0.3073433365609314, 46.60357030166098], [0.30739748527843785, 46.60379681387351], [0.32343471062491075, 46.61685810806334], [0.34651477132266517, 46.62135918922161], [0.35922533323900524, 46.61838249867269], [0.3463559931398147, 46.604590356837], [0.3425356074505698, 46.59307647664102], [0.3736519126539971, 46.5908033248472], [0.3932120085154051, 46.60519663252105], [0.42223946930805767, 46.60006077459183], [0.42857569539485085, 46.60205910071221]]]}}, {"type": "Feature", "properties": {"nom": "Avignon", "code": "84007"}, "geometry": {"type": "Polygon", "coordinates": [[[4.810973563902835, 43.91427609441182], [4.773596217088468, 43.91963341372466], [4.739060856654237, 43.92405947349057], [4.7499958326974525, 43.93218443591625], [4.779022226905269, 43.937890875835855], [4.791981236623186, 43.952271236502085], [4.815061095574236, 43.96762596960125], [4.810150051486812, 43.977042614826246], [4.8159847814707275, 43.98880175042401], [4.842106431474998, 43.98647433852841], [4.8455539006765855, 43.99667885395472], [4.851568357503202, 43.98911424664355], [4.853980380614251, 43.97126685456565], [4.838079537698169, 43.95245981820247], [4.883970868372069, 43.95276756425916], [4.899492422597946, 43.93054249097783], [4.898802108711414, 43.914665778036124], [4.927176726246698, 43.905283661876], [4.918733816237234, 43.89709650027193], [4.922008362386768, 43.886758569801685], [4.902319279838385, 43.88793164631778], [4.881334787508861, 43.901564131062436], [4.853093547765335, 43.91138205123056], [4.810973563902835, 43.91427609441182]]]}}, {"type": "Feature", "properties": {"nom": "Rennes", "code": "35238"}, "geometry": {"type": "Polygon", "coordinates": [[[-1.6395362829570241, 48.15104210195109], [-1.6250164009162062, 48.15489372474089], [-1.636618673270282, 48.13561712231279], [-1.6287161898154894, 48.12719343132206], [-1.6341192813328587, 48.11404604468263], [-1.6245692129702243, 48.099827844373124], [-1.627709751525769, 48.08882451582073], [-1.6496077638209463, 48.07989389627373], [-1.6772068722675728, 48.07740763445753], [-1.6995532738970105, 48.080163846902046], [-1.69406180340742, 48.09709589938391], [-1.7207138509421496, 48.090549353254204], [-1.7315293497871926, 48.08360646708332], [-1.751664045148061, 48.08159635882617], [-1.7517647999164518, 48.09154476637668], [-1.7429896231808066, 48.09976857197471], [-1.7279350409260592, 48.11110148303914], [-1.7252312477905856, 48.122180720460115], [-1.7396597041728212, 48.131354836404135], [-1.7249710061893577, 48.14402418248428], [-1.70248521635801, 48.1438058338494], [-1.6923429262002483, 48.132590803859856], [-1.662342217321319, 48.14281832966873], [-1.6426888756970461, 48.14477054288944], [-1.6395362829570241, 48.15104210195109]]]}}, {"type": "Feature", "properties": {"nom": "Perpignan", "code": "66136"}, "geometry": {"type": "Polygon", "coordinates": [[[2.860119930985272, 42.65554192983774], [2.8442255362697546, 42.66424992342302], [2.8396394210234726, 42.68398696832148], [2.826973227493835, 42.68961354004823], [2.826445788938305, 42.69074554602213], [2.8427670755766328, 42.69459192712764], [2.871933753827322, 42.700438983766794], [2.8625630711286596, 42.71970430964675], [2.8525352579248544, 42.731091868838355], [2.8664018000285294, 42.741980587657125], [2.8906152528334874, 42.748805550901196], [2.897873088435371, 42.73555043224422], [2.9134952880885585, 42.728946596336336], [2.9245548431089214, 42.73051044740783], [2.9280514587590356, 42.7137442556756], [2.958051050163762, 42.72263449490342], [2.958603291461984, 42.71772552212973], [2.9822475950656395, 42.71367704472384], [2.9774454491075244, 42.70920306306851], [2.974613243882554, 42.68982230729387], [2.9615260035852544, 42.68643781981312], [2.9326223308118182, 42.693841046672354], [2.9187654934398544, 42.69282444007484], [2.922495044047949, 42.67453975854993], [2.9298412091443513, 42.665275353874954], [2.9297089333408035, 42.65374023736865], [2.906353626385162, 42.64998224905405], [2.8969631660975668, 42.65700877777719], [2.8860507986397828, 42.649971538516866], [2.860119930985272, 42.65554192983774]]]}}, {"type": "Feature", "properties": {"nom": "Aix-en-Provence", "code": "13001"}, "geometry": {"type": "Polygon", "coordinates": [[[5.269571894227766, 43.495461784468105], [5.288584932854216, 43.509067410196515], [5.2941619031031335, 43.519588646447865], [5.30718416742056, 43.51429892782016], [5.3370938556859855, 43.520718242238196], [5.348502224311299, 43.536311100110574], [5.370061226008081, 43.53764709497551], [5.377780553945192, 43.54478280834209], [5.382235072918482, 43.56475835082957], [5.362383558377575, 43.57900045397081], [5.358098157436194, 43.58891429753332], [5.334503639199972, 43.592799613167216], [5.357116805009208, 43.60331119568529], [5.36747281213946, 43.62012630991796], [5.365338311584772, 43.624853739957395], [5.411258165812633, 43.62267423534707], [5.4308852499201405, 43.62045002130042], [5.446812845915137, 43.62259510022761], [5.463795111941955, 43.61363683605347], [5.464014716778789, 43.591639879425976], [5.468702357159773, 43.573358531581746], [5.493953189104964, 43.56664210848155], [5.498516076987229, 43.56168515171159], [5.482795157954409, 43.533357259366305], [5.506303023293689, 43.5322136508546], [5.476370509372982, 43.5226661457821], [5.479509201319561, 43.512557714362245], [5.468962590385591, 43.50990433212658], [5.463787884499885, 43.49983690417397], [5.469146867785414, 43.489012382594176], [5.455391268024359, 43.477398128866696], [5.441786111562771, 43.47152166932406], [5.431832634878098, 43.47346465721931], [5.4030953371395025, 43.46958708942782], [5.3875380631905125, 43.4619021053775], [5.3777972158641605, 43.468686897805355], [5.332242623807545, 43.48812834942005], [5.319981881995399, 43.47716742771583], [5.329339020146414, 43.46132350893522], [5.3010025890644865, 43.44611493659503], [5.287608992065546, 43.46716271320344], [5.289335088185819, 43.4754428232079], [5.271657922982974, 43.48567937952666], [5.269571894227766, 43.495461784468105]]]}}, {"type": "Feature", "properties": {"nom": "Toulouse", "code": "31555"}, "geometry": {"type": "Polygon", "coordinates": [[[1.3593159642399752, 43.56019112775213], [1.3685017760334819, 43.57138975357943], [1.3632845415463597, 43.57638690647248], [1.3769320711103394, 43.589730913232316], [1.3619128863505658, 43.591485342162976], [1.3503256394123335, 43.60433238750766], [1.3556444377216774, 43.619253460973226], [1.3664541596894797, 43.625077298443614], [1.3894040134837349, 43.615178228954306], [1.4003226765207815, 43.622962173901776], [1.4015112549659932, 43.649213799517355], [1.4066941825384705, 43.65493274124486], [1.4000740083378855, 43.66651735154759], [1.4119458409338697, 43.66670934390657], [1.4306138131878265, 43.65912794491723], [1.4397670068543127, 43.66851597874667], [1.4411702816266676, 43.65475745351198], [1.453055521680525, 43.65068832984871], [1.4599727308021868, 43.66079417799892], [1.4767259795685965, 43.64285537481645], [1.4994890228910795, 43.64624526852753], [1.490006692445606, 43.633127672255], [1.4801538862067456, 43.62854460768156], [1.4952516008088117, 43.585764932233765], [1.5045659513990253, 43.57989114289777], [1.512909222795041, 43.57702700279737], [1.513967692526191, 43.564829780027985], [1.5062987691924257, 43.55754334300355], [1.4944507222012267, 43.55352811252239], [1.4792028467191862, 43.557419128338516], [1.4564463347890355, 43.542708489269785], [1.4614156651159946, 43.532691217737124], [1.4406257382773047, 43.54172642394681], [1.4287664095641144, 43.546090915959624], [1.408919251640837, 43.5475296297339], [1.3905132085878387, 43.538124130436124], [1.3679247956031289, 43.54989072017677], [1.3593159642399752, 43.56019112775213]]]}}, {"type": "Feature", "properties": {"nom": "Clermont-Ferrand", "code": "63113"}, "geometry": {"type": "Polygon", "coordinates": [[[3.089152355599958, 45.8146628100655], [3.1212388424085447, 45.81835195044904], [3.1414736239181984, 45.80928747279967], [3.1623770693466913, 45.806584884140115], [3.1583415171290414, 45.786734769389675], [3.1625893809321233, 45.77811102698831], [3.1718737178623297, 45.76337423801845], [3.1517066079061795, 45.756343316400546], [3.117953810425182, 45.76363260067677], [3.1014385740930357, 45.759065168201786], [3.077364240894417, 45.75594154114564], [3.0702878359265258, 45.76512215434954], [3.0723252280219775, 45.778421095696956], [3.05320881974982, 45.78601385182383], [3.0779103742824727, 45.80572024526894], [3.089152355599958, 45.8146628100655]]]}}, {"type": "Feature", "properties": {"nom": "Tours", "code": "37261"}, "geometry": {"type": "Polygon", "coordinates": [[[0.7046303484943894, 47.35018007581747], [0.6992219505661064, 47.35392765077879], [0.6975143547885434, 47.359747723414145], [0.6652515667042841, 47.362841354393225], [0.6604073684050155, 47.375136282089414], [0.6664475238447425, 47.381661016140605], [0.6645028752267668, 47.39495083063661], [0.678642975096531, 47.400421445960994], [0.6726998272084564, 47.427320234221376], [0.6753040778820639, 47.435504533249386], [0.6909838824066826, 47.43909485667243], [0.710404830855047, 47.43874918779358], [0.7343301537424917, 47.428870120896306], [0.7267557789464922, 47.40658641263911], [0.7295281289882429, 47.40032756824825], [0.7023243734795876, 47.39876197585068], [0.7151286663262579, 47.377179686665166], [0.7373305607658759, 47.37668647093443], [0.7151447914756479, 47.374000928647924], [0.7046303484943894, 47.35018007581747]]]}}, {"type": "Feature", "properties": {"nom": "Annecy", "code": "74010"}, "geometry": {"type": "Polygon", "coordinates": [[[6.175482129288373, 45.93609604665059], [6.1828606771889785, 45.9243079190148], [6.193620083526822, 45.92033657057113], [6.204339287257764, 45.90682121962328], [6.19736482453415, 45.901205750999516], [6.1832547196913, 45.90610109643629], [6.149027559794178, 45.89721847926616], [6.156104594464647, 45.88286304796398], [6.1405248697367245, 45.88345932571481], [6.126610100561136, 45.87519367048277], [6.122548894038123, 45.85930072769698], [6.102938771528319, 45.837437609352925], [6.085231243005706, 45.8555499142712], [6.071737266998913, 45.844833265195994], [6.072693765348802, 45.83052364114727], [6.048738954782331, 45.831632655415], [6.057695344488547, 45.836810962635425], [6.05258294177672, 45.846587251307945], [6.064050591139001, 45.854089836824166], [6.05971693776425, 45.86895944621014], [6.067813455792812, 45.87049716544532], [6.066544482212891, 45.88560371363081], [6.078382785002877, 45.89031943978618], [6.084551037114161, 45.90218652225653], [6.086422458734686, 45.921078267288316], [6.098530964191367, 45.92928136945408], [6.113548497305087, 45.92147915514703], [6.123663312065199, 45.935213831612785], [6.092866303130327, 45.95949090518254], [6.075116152454508, 45.964417445708364], [6.088290193323005, 45.97672932693085], [6.104585782814002, 45.96658677222927], [6.134504092175243, 45.95752510648235], [6.137119110769225, 45.95239688423136], [6.127895979796213, 45.9424236161854], [6.139954040853228, 45.93516380490507], [6.155804673395139, 45.938926828523925], [6.175482129288373, 45.93609604665059]]]}}, {"type": "Feature", "properties": {"nom": "Besançon", "code": "25056"}, "geometry": {"type": "Polygon", "coordinates": [[[5.952037146424457, 47.22586933228391], [5.9587069272042354, 47.23556402292254], [5.9654212643493025, 47.2409869681829], [5.9882612388953405, 47.263724650249834], [6.0051999110479795, 47.27624182339188], [6.002371786461392, 47.291008707013305], [6.0108789906011495, 47.29537377487386], [6.035962275884247, 47.309702101788275], [6.06494372092346, 47.31989533741537], [6.072761294106138, 47.3115803850078], [6.076139151498197, 47.31620269419054], [6.083561944938739, 47.30128461756539], [6.058764889763922, 47.278895497320946], [6.056813435390469, 47.266937623178514], [6.052992780703978, 47.2614255178435], [6.063798542972071, 47.23995944945666], [6.05979404268285, 47.231893730628684], [6.046695205267317, 47.218049130529316], [6.029150323755276, 47.21433793164357], [6.005487833611905, 47.21680120924214], [5.989441061463628, 47.200729638766234], [5.9640280553731975, 47.21356315268161], [5.953425737737988, 47.20925738891806], [5.9409134833385115, 47.215683843935125], [5.952037146424457, 47.22586933228391]]]}}, {"type": "Feature", "properties": {"nom": "Caen", "code": "14118"}, "geometry": {"type": "Polygon", "coordinates": [[[-0.33622703529010317, 49.166910348223134], [-0.3429664544672702, 49.15312631613159], [-0.35879211100539277, 49.159371646464265], [-0.3676253869896302, 49.16649474728795], [-0.39431050870381007, 49.16640195286018], [-0.41329768716846366, 49.186913283424325], [-0.4127751320444709, 49.18877284614085], [-0.4021114140837305, 49.200727910423794], [-0.39628599326937025, 49.20005547423982], [-0.3727211827851424, 49.21541213029957], [-0.3599275910288222, 49.21279121620787], [-0.33592216088677473, 49.192834395002166], [-0.3335346930703171, 49.185827794491615], [-0.33622703529010317, 49.166910348223134]]]}}, {"type": "Feature", "properties": {"nom": "Saint-Étienne", "code": "42218"}, "geometry": {"type": "MultiPolygon", "coordinates": [[[[4.462626159824892, 45.37453458234928], [4.446814406093311, 45.38514186807552], [4.446979858238025, 45.39445197226047], [4.4369956789024085, 45.40727895034011], [4.42148700810247, 45.40678324033061], [4.409258730873898, 45.39710537856888], [4.393641880313696, 45.39764965319102], [4.381258318896931, 45.403988795875975], [4.370921558797153, 45.41872453003333], [4.358841374002798, 45.42047464813537], [4.362520364563957, 45.42657203037876], [4.366383658225122, 45.433369524656364], [4.358559846075249, 45.45291739274192], [4.369966517505589, 45.46404514469978], [4.387915941658094, 45.47555939815535], [4.412254242956419, 45.473175354848934], [4.4231207294986605, 45.45863733798419], [4.420320527072922, 45.44471342022089], [4.4568143509571785, 45.43953515086431], [4.470469205435064, 45.44696715181967], [4.460396450276254, 45.43612927620016], [4.4683017643340674, 45.42401186339074], [4.480634528949046, 45.41742829197616], [4.475450997039658, 45.39750304343251], [4.48324273389551, 45.38912356624572], [4.488920586793379, 45.38397781752778], [4.464908992639166, 45.372424355643105], [4.462626159824892, 45.37453458234928]]], [[[4.251407724269218, 45.421599173747985], [4.24717129407194, 45.42999466046519], [4.254920614232006, 45.463922886708595], [4.280845812347494, 45.46653881193663], [4.295056106663244, 45.46340377648071], [4.302301819066955, 45.4531162910702], [4.3084799243370595, 45.43617646768171], [4.306604122864539, 45.41569211334574], [4.30026175733396, 45.413505403563484], [4.275331274745991, 45.41866389988844], [4.26062118969594, 45.41621861187229], [4.251407724269218, 45.421599173747985]]]]}}]}