{
 "type": "FeatureCollection",
 "maj": "2026-10-03",
 "stats": {
  "profs": 101,
  "pays": 21
 },
 "features": [
  {
   "type": "Feature",
   "geometry": {
    "type": "Point",
    "coordinates": [
     5.81432,
     43.19794
    ]
   },
   "properties": {
    "nom": "Hélène L.",
    "ini": "HL",
    "ville": "Le Beausset",
    "pays": "France",
    "insta": "https://instagram.com/mynameishelene"
   }
  },
  {
   "type": "Feature",
   "geometry": {
    "type": "Point",
    "coordinates": [
     3.1314,
     50.61932
    ]
   },
   "properties": {
    "nom": "Sarah T.",
    "ini": "ST",
    "ville": "villeneuve d'ascq",
    "pays": "france",
    "insta": "https://instagram.com/sarah.mouvement"
   }
  },
  {
   "type": "Feature",
   "geometry": {
    "type": "Point",
    "coordinates": [
     3.0699,
     50.65515
    ]
   },
   "properties": {
    "nom": "Alizée T.",
    "ini": "AT",
    "ville": "La Madeleine",
    "pays": "France",
    "insta": "https://instagram.com/ali.bhagini"
   }
  },
  {
   "type": "Feature",
   "geometry": {
    "type": "Point",
    "coordinates": [
     2.29261,
     49.90304
    ]
   },
   "properties": {
    "nom": "Celia L.",
    "ini": "CL",
    "ville": "Amiens",
    "pays": "France",
    "insta": "https://instagram.com/celiasana.yoga"
   }
  },
  {
   "type": "Feature",
   "geometry": {
    "type": "Point",
    "coordinates": [
     6.1466,
     46.20176
    ]
   },
   "properties": {
    "nom": "Audrey K.",
    "ini": "AK",
    "ville": "Geneva",
    "pays": "Switzerland",
    "insta": "https://instagram.com/audreykng"
   }
  },
  {
   "type": "Feature",
   "geometry": {
    "type": "Point",
    "coordinates": [
     1.6341,
     48.99835
    ]
   },
   "properties": {
    "nom": "Gilles F.",
    "ini": "GF",
    "ville": "Rosny-Sur-Seine",
    "pays": "France",
    "site": "https://www.api-yoga.fr",
    "insta": "https://instagram.com/api._.yoga",
    "ico": "icons/rec29R6kldNVoGOeJ.ico"
   }
  },
  {
   "type": "Feature",
   "geometry": {
    "type": "Point",
    "coordinates": [
     3.04539,
     50.63095
    ]
   },
   "properties": {
    "nom": "Hortense M.",
    "ini": "HM",
    "ville": "Lille",
    "pays": "France",
    "site": "https://www.oasisstudioyoga.com/",
    "insta": "https://instagram.com/hortiie",
    "ico": "icons/rec2cMKE15jLZjKti.ico"
   }
  },
  {
   "type": "Feature",
   "geometry": {
    "type": "Point",
    "coordinates": [
     0.12999,
     49.50735
    ]
   },
   "properties": {
    "nom": "Marianne N.",
    "ini": "MN",
    "ville": "le havre",
    "pays": "France",
    "insta": "https://instagram.com/yogamoula"
   }
  },
  {
   "type": "Feature",
   "geometry": {
    "type": "Point",
    "coordinates": [
     3.85951,
     43.59047
    ]
   },
   "properties": {
    "nom": "Nolwenn L.",
    "ini": "NL",
    "ville": "Online",
    "pays": "France",
    "site": "https://nolwennlazzariyoga.com/",
    "insta": "https://instagram.com/nolwennlazzariyoga",
    "ico": "icons/rec39oZY0UppNkxrV.png"
   }
  },
  {
   "type": "Feature",
   "geometry": {
    "type": "Point",
    "coordinates": [
     1.91793,
     49.00784
    ]
   },
   "properties": {
    "nom": "De Larrard Q.",
    "ini": "DQ",
    "ville": "Yvelines",
    "pays": "France",
    "insta": "https://instagram.com/quentindelarrard.yoga"
   }
  },
  {
   "type": "Feature",
   "geometry": {
    "type": "Point",
    "coordinates": [
     2.26587,
     48.88619
    ]
   },
   "properties": {
    "nom": "Jenny M.",
    "ini": "JM",
    "ville": "Neuilly-sur-Seine",
    "pays": "France",
    "insta": "https://instagram.com/jennymoulyrespire"
   }
  },
  {
   "type": "Feature",
   "geometry": {
    "type": "Point",
    "coordinates": [
     3.08194,
     45.77746
    ]
   },
   "properties": {
    "nom": "Elise D.",
    "ini": "ED",
    "ville": "clermont-ferrand",
    "pays": "france",
    "insta": "https://instagram.com/la.sage.femme"
   }
  },
  {
   "type": "Feature",
   "geometry": {
    "type": "Point",
    "coordinates": [
     -1.22131,
     48.06757
    ]
   },
   "properties": {
    "nom": "Marie M.",
    "ini": "MM",
    "ville": "Étrelles",
    "pays": "France",
    "site": "https://www.leyogaavecmarie.com/",
    "insta": "https://instagram.com/marie.morgoun",
    "ico": "icons/rec5nGAE7tSH2CZ7Z.ico"
   }
  },
  {
   "type": "Feature",
   "geometry": {
    "type": "Point",
    "coordinates": [
     -52.31158,
     4.92525
    ]
   },
   "properties": {
    "nom": "Astrid L.",
    "ini": "AL",
    "ville": "Cayenne",
    "pays": "Guyane française",
    "site": "https://www.astridcandice.com",
    "insta": "https://instagram.com/astridcandice_",
    "ico": "icons/rec6CV4wS5fkMZzKL.ico"
   }
  },
  {
   "type": "Feature",
   "geometry": {
    "type": "Point",
    "coordinates": [
     4.89245,
     52.37308
    ]
   },
   "properties": {
    "nom": "Valeria S.",
    "ini": "VS",
    "ville": "Amsterdam",
    "pays": "Netherlands",
    "site": "https://valeriasaporettiyoga.com",
    "insta": "https://instagram.com/valeriasaporetti",
    "ico": "icons/rec76rzHEkdaKCuQZ.jpg"
   }
  },
  {
   "type": "Feature",
   "geometry": {
    "type": "Point",
    "coordinates": [
     2.347,
     48.859
    ]
   },
   "properties": {
    "nom": "Annabelle R.",
    "ini": "AR",
    "ville": "Paris",
    "pays": "France",
    "insta": "https://instagram.com/annabelle_rastoin"
   }
  },
  {
   "type": "Feature",
   "geometry": {
    "type": "Point",
    "coordinates": [
     1.00988,
     47.09275
    ]
   },
   "properties": {
    "nom": "Marie-Charlotte J.",
    "ini": "MJ",
    "ville": "Perrusson",
    "pays": "France",
    "site": "https://www.sophroanimaux.com",
    "ico": "icons/rec8j4dZH8J9zLDOp.ico"
   }
  },
  {
   "type": "Feature",
   "geometry": {
    "type": "Point",
    "coordinates": [
     7.25531,
     43.71273
    ]
   },
   "properties": {
    "nom": "Le Gohlisse O.",
    "ini": "LO",
    "ville": "Nice",
    "pays": "France",
    "site": "https://ophelielegohlisse.fr/",
    "insta": "https://instagram.com/olegohlisse",
    "ico": "icons/rec8qXuzM6mrlm5hA.png"
   }
  },
  {
   "type": "Feature",
   "geometry": {
    "type": "Point",
    "coordinates": [
     4.89245,
     52.37308
    ]
   },
   "properties": {
    "nom": "Vasselin E.",
    "ini": "VE",
    "ville": "Amsterdam",
    "pays": "Pays-Bas",
    "site": "https://elsayoga.my.canva.site/reloveutionyoga/#page-0",
    "insta": "https://instagram.com/elsavasselin",
    "ico": "icons/rec9VVZNNjWroWu9S.png"
   }
  },
  {
   "type": "Feature",
   "geometry": {
    "type": "Point",
    "coordinates": [
     2.347,
     48.859
    ]
   },
   "properties": {
    "nom": "Nadia B.",
    "ini": "NB",
    "ville": "Paris",
    "pays": "France",
    "insta": "https://instagram.com/nadiabensalah"
   }
  },
  {
   "type": "Feature",
   "geometry": {
    "type": "Point",
    "coordinates": [
     0.25682,
     49.56811
    ]
   },
   "properties": {
    "nom": "Téo G.",
    "ini": "TG",
    "ville": "Manéglise",
    "pays": "France",
    "insta": "https://instagram.com/teo.gthr"
   }
  },
  {
   "type": "Feature",
   "geometry": {
    "type": "Point",
    "coordinates": [
     1.22125,
     45.85616
    ]
   },
   "properties": {
    "nom": "Sonya D.",
    "ini": "SD",
    "ville": "Limoges",
    "pays": "France",
    "site": "https://www.cabinet-seva.fr",
    "insta": "https://instagram.com/cabinet_seva",
    "ico": "icons/recCG5AdyW8LxkX1A.png"
   }
  },
  {
   "type": "Feature",
   "geometry": {
    "type": "Point",
    "coordinates": [
     -61.06219,
     14.6478
    ]
   },
   "properties": {
    "nom": "Jeanne G.",
    "ini": "JG",
    "ville": "France",
    "pays": "France",
    "site": "https://jeanneguillot.com",
    "insta": "https://instagram.com/jeanne.guillot.yoga",
    "ico": "icons/recCS7x2Bbntx6mft.png"
   }
  },
  {
   "type": "Feature",
   "geometry": {
    "type": "Point",
    "coordinates": [
     2.29261,
     49.90304
    ]
   },
   "properties": {
    "nom": "Coralie S.",
    "ini": "CS",
    "ville": "Amiens",
    "pays": "France",
    "site": "https://creayoga.wixsite.com/creayoga",
    "insta": "https://instagram.com/crea.yoga",
    "ico": "icons/recDzJPhIPU6b6ccc.jpg"
   }
  },
  {
   "type": "Feature",
   "geometry": {
    "type": "Point",
    "coordinates": [
     1.91136,
     47.87357
    ]
   },
   "properties": {
    "nom": "Vanessa P.",
    "ini": "VP",
    "ville": "Orléans",
    "pays": "France",
    "site": "https://www.vyomastudio.com",
    "insta": "https://instagram.com/vyomamethod",
    "ico": "icons/recGP9f1qFh6UNaWy.png"
   }
  },
  {
   "type": "Feature",
   "geometry": {
    "type": "Point",
    "coordinates": [
     7.76145,
     48.57983
    ]
   },
   "properties": {
    "nom": "Julie G.",
    "ini": "JG",
    "ville": "Strasbourg",
    "pays": "France",
    "site": "https://laboyogart.fr/",
    "ico": "icons/recGca1UwK7pTlkeH.png"
   }
  },
  {
   "type": "Feature",
   "geometry": {
    "type": "Point",
    "coordinates": [
     2.73923,
     50.31378
    ]
   },
   "properties": {
    "nom": "Anne-Catherine R.",
    "ini": "AR",
    "ville": "Anzin-Saint-Aubin",
    "pays": "France",
    "insta": "https://instagram.com/yogini.traveller"
   }
  },
  {
   "type": "Feature",
   "geometry": {
    "type": "Point",
    "coordinates": [
     5.85392,
     43.13497
    ]
   },
   "properties": {
    "nom": "Tiphaine V.",
    "ini": "TV",
    "ville": "Ollioules",
    "pays": "France",
    "insta": "https://instagram.com/tiphaine.yoga"
   }
  },
  {
   "type": "Feature",
   "geometry": {
    "type": "Point",
    "coordinates": [
     5.9338,
     43.1367
    ]
   },
   "properties": {
    "nom": "Curcovich J.",
    "ini": "CJ",
    "ville": "Toulon",
    "pays": "France",
    "insta": "https://instagram.com/sunsoul.yoga"
   }
  },
  {
   "type": "Feature",
   "geometry": {
    "type": "Point",
    "coordinates": [
     55.44459,
     -20.90978
    ]
   },
   "properties": {
    "nom": "Tess J.",
    "ini": "TJ",
    "ville": "Saint-Denis",
    "pays": "La Réunion",
    "insta": "https://instagram.com/blueandtender"
   }
  },
  {
   "type": "Feature",
   "geometry": {
    "type": "Point",
    "coordinates": [
     7.46901,
     46.30692
    ]
   },
   "properties": {
    "nom": "Nathalie S.",
    "ini": "NS",
    "ville": "Crans Montana",
    "pays": "Suisse",
    "insta": "https://instagram.com/nathaliedxb"
   }
  },
  {
   "type": "Feature",
   "geometry": {
    "type": "Point",
    "coordinates": [
     3.16299,
     49.98545
    ]
   },
   "properties": {
    "nom": "Sophie D.",
    "ini": "SD",
    "ville": "Le Ronssoy",
    "pays": "France",
    "insta": "https://instagram.com/yoga.avecsophie"
   }
  },
  {
   "type": "Feature",
   "geometry": {
    "type": "Point",
    "coordinates": [
     5.7243,
     45.18283
    ]
   },
   "properties": {
    "nom": "Julie F.",
    "ini": "JF",
    "ville": "Grenoble",
    "pays": "France",
    "insta": "https://instagram.com/julie_yoga_grenoble"
   }
  },
  {
   "type": "Feature",
   "geometry": {
    "type": "Point",
    "coordinates": [
     -5.60502,
     36.01291
    ]
   },
   "properties": {
    "nom": "Alizée D.",
    "ini": "AD",
    "ville": "Tarifa",
    "pays": "Espagne",
    "site": "https://alizeestudio.com",
    "insta": "https://instagram.com/alizee_studio",
    "ico": "icons/recL15TcwwIEYrBvA.png"
   }
  },
  {
   "type": "Feature",
   "geometry": {
    "type": "Point",
    "coordinates": [
     8.68209,
     50.11064
    ]
   },
   "properties": {
    "nom": "Caroline D.",
    "ini": "CD",
    "ville": "Frankfurt Am Main",
    "pays": "Allemagne",
    "site": "https://www.attitude-yoga.com",
    "insta": "https://instagram.com/caro.attitude.yoga",
    "ico": "icons/recLKhT7kVIVsuaGX.ico"
   }
  },
  {
   "type": "Feature",
   "geometry": {
    "type": "Point",
    "coordinates": [
     2.347,
     48.859
    ]
   },
   "properties": {
    "nom": "Murielle H.",
    "ini": "MH",
    "ville": "Paris",
    "pays": "France",
    "insta": "https://instagram.com/murielleyogi"
   }
  },
  {
   "type": "Feature",
   "geometry": {
    "type": "Point",
    "coordinates": [
     7.25531,
     43.71273
    ]
   },
   "properties": {
    "nom": "Anna L.",
    "ini": "AL",
    "ville": "Nice",
    "pays": "France",
    "insta": "https://instagram.com/naianna.yoga"
   }
  },
  {
   "type": "Feature",
   "geometry": {
    "type": "Point",
    "coordinates": [
     5.9338,
     43.1367
    ]
   },
   "properties": {
    "nom": "Agnès E.",
    "ini": "AE",
    "ville": "Toulon",
    "pays": "France",
    "site": "https://www.anyes-yoga.com/",
    "insta": "https://instagram.com/anyes_yoga",
    "ico": "icons/recMdqH8uOUTh7AEN.png"
   }
  },
  {
   "type": "Feature",
   "geometry": {
    "type": "Point",
    "coordinates": [
     55.18856,
     25.07428
    ]
   },
   "properties": {
    "nom": "Christelle T.",
    "ini": "CT",
    "ville": "Dubai",
    "pays": "United Arab Emirates",
    "insta": "https://instagram.com/thirietchristelle"
   }
  },
  {
   "type": "Feature",
   "geometry": {
    "type": "Point",
    "coordinates": [
     -7.98916,
     31.62583
    ]
   },
   "properties": {
    "nom": "Sarah B.",
    "ini": "SB",
    "ville": "Marrakech",
    "pays": "Maroc",
    "insta": "https://instagram.com/sarabee_yogatherapie"
   }
  },
  {
   "type": "Feature",
   "geometry": {
    "type": "Point",
    "coordinates": [
     2.20231,
     48.89809
    ]
   },
   "properties": {
    "nom": "Audrey B.",
    "ini": "AB",
    "ville": "Nanterre",
    "pays": "France",
    "site": "https://yurbanyoga.com",
    "insta": "https://instagram.com/yurbanyoga",
    "ico": "icons/recPZq8ySLfHhX199.png"
   }
  },
  {
   "type": "Feature",
   "geometry": {
    "type": "Point",
    "coordinates": [
     -151.50392,
     -16.63083
    ]
   },
   "properties": {
    "nom": "Caroline C.",
    "ini": "CC",
    "ville": "Taha'a",
    "pays": "Polynésie française",
    "insta": "https://instagram.com/caroline_chiron_yoga"
   }
  },
  {
   "type": "Feature",
   "geometry": {
    "type": "Point",
    "coordinates": [
     5.39926,
     50.51623
    ]
   },
   "properties": {
    "nom": "Morgane H.",
    "ini": "MH",
    "ville": "Nandrin",
    "pays": "Belgique",
    "insta": "https://instagram.com/Yoga.aloa"
   }
  },
  {
   "type": "Feature",
   "geometry": {
    "type": "Point",
    "coordinates": [
     2.11123,
     48.92387
    ]
   },
   "properties": {
    "nom": "Mercé L.",
    "ini": "ML",
    "ville": "Saint-Germain-en-Laye",
    "pays": "France",
    "insta": "https://instagram.com/yogaavecmerce"
   }
  },
  {
   "type": "Feature",
   "geometry": {
    "type": "Point",
    "coordinates": [
     7.76145,
     48.57983
    ]
   },
   "properties": {
    "nom": "Esther B.",
    "ini": "EB",
    "ville": "Strasbourg",
    "pays": "France",
    "site": "https://www.maisondesoiyoga.com",
    "insta": "https://instagram.com/maisondesoiyoga",
    "ico": "icons/recRchmxTDmD4BCVj.png"
   }
  },
  {
   "type": "Feature",
   "geometry": {
    "type": "Point",
    "coordinates": [
     3.87048,
     43.61048
    ]
   },
   "properties": {
    "nom": "Morgane P.",
    "ini": "MP",
    "ville": "Montpellier",
    "pays": "France",
    "insta": "https://instagram.com/morgane.yogini"
   }
  },
  {
   "type": "Feature",
   "geometry": {
    "type": "Point",
    "coordinates": [
     2.14294,
     48.67985
    ]
   },
   "properties": {
    "nom": "Véronique M.",
    "ini": "VM",
    "ville": "Gometz-le-Châtel",
    "pays": "France",
    "site": "https://www.namasst.com",
    "insta": "https://instagram.com/vero_yoga_massage",
    "ico": "icons/recRyjnHAkRCRGwxb.ico"
   }
  },
  {
   "type": "Feature",
   "geometry": {
    "type": "Point",
    "coordinates": [
     -1.46656,
     43.48854
    ]
   },
   "properties": {
    "nom": "Fanny S.",
    "ini": "FS",
    "ville": "Bayonne",
    "pays": "France",
    "site": "https://www.yogamayucha.fr",
    "insta": "https://instagram.com/fanny.souliez"
   }
  },
  {
   "type": "Feature",
   "geometry": {
    "type": "Point",
    "coordinates": [
     4.36927,
     50.68287
    ]
   },
   "properties": {
    "nom": "Daphné D.",
    "ini": "DD",
    "ville": "Braine l'Alleud",
    "pays": "Belgique",
    "site": "https://www.serenityoga.be",
    "insta": "https://instagram.com/daphne_serenityoga",
    "ico": "icons/recWJ8Yipsq3zz20B.png"
   }
  },
  {
   "type": "Feature",
   "geometry": {
    "type": "Point",
    "coordinates": [
     7.76145,
     48.57983
    ]
   },
   "properties": {
    "nom": "Thirion N.",
    "ini": "TN",
    "ville": "Strasbourg",
    "pays": "France",
    "site": "https://moovestras.fr",
    "insta": "https://instagram.com/moove.stras",
    "ico": "icons/recWVcYMo8afm4rYD.png"
   }
  },
  {
   "type": "Feature",
   "geometry": {
    "type": "Point",
    "coordinates": [
     7.25531,
     43.71273
    ]
   },
   "properties": {
    "nom": "Pricilia R.",
    "ini": "PR",
    "ville": "Nice",
    "pays": "France",
    "insta": "https://instagram.com/pricilia_renou_yoga"
   }
  },
  {
   "type": "Feature",
   "geometry": {
    "type": "Point",
    "coordinates": [
     2.347,
     48.859
    ]
   },
   "properties": {
    "nom": "Jade F.",
    "ini": "JF",
    "ville": "Paris",
    "pays": "France",
    "insta": "https://instagram.com/jade_fehlmann"
   }
  },
  {
   "type": "Feature",
   "geometry": {
    "type": "Point",
    "coordinates": [
     5.0336,
     47.33195
    ]
   },
   "properties": {
    "nom": "Geneviève D.",
    "ini": "GD",
    "ville": "Dijon",
    "pays": "France",
    "site": "https://atelier-des-elephants.dellas.fr/yoga/",
    "insta": "https://instagram.com/atelierdeselephants",
    "ico": "icons/recYFXCgE18jKbyfG.png"
   }
  },
  {
   "type": "Feature",
   "geometry": {
    "type": "Point",
    "coordinates": [
     6.01122,
     43.20882
    ]
   },
   "properties": {
    "nom": "Hélène M.",
    "ini": "HM",
    "ville": "Solliès Toucas",
    "pays": "France",
    "site": "https://www.anahata-yoga.eu",
    "insta": "https://instagram.com/heln83"
   }
  },
  {
   "type": "Feature",
   "geometry": {
    "type": "Point",
    "coordinates": [
     -4.49774,
     48.40644
    ]
   },
   "properties": {
    "nom": "Christelle B.",
    "ini": "CB",
    "ville": "Brest",
    "pays": "France",
    "insta": "https://instagram.com/funkyyogachristelle29"
   }
  },
  {
   "type": "Feature",
   "geometry": {
    "type": "Point",
    "coordinates": [
     6.1253,
     45.90158
    ]
   },
   "properties": {
    "nom": "Maelle L.",
    "ini": "ML",
    "ville": "Annecy",
    "pays": "France",
    "insta": "https://instagram.com/maelle_lehec"
   }
  },
  {
   "type": "Feature",
   "geometry": {
    "type": "Point",
    "coordinates": [
     0.03994,
     45.27439
    ]
   },
   "properties": {
    "nom": "Marine G.",
    "ini": "MG",
    "ville": "Chalais",
    "pays": "France",
    "insta": "https://instagram.com/marine_yogashambo"
   }
  },
  {
   "type": "Feature",
   "geometry": {
    "type": "Point",
    "coordinates": [
     2.347,
     48.859
    ]
   },
   "properties": {
    "nom": "Gabriela G.",
    "ini": "GG",
    "ville": "PARIS",
    "pays": "France",
    "site": "https://www.achiq-yoga.com/",
    "insta": "https://instagram.com/achiq_yoga",
    "ico": "icons/reccFm1NFdf7LIuNR.png"
   }
  },
  {
   "type": "Feature",
   "geometry": {
    "type": "Point",
    "coordinates": [
     2.347,
     48.859
    ]
   },
   "properties": {
    "nom": "Hasnae R.",
    "ini": "HR",
    "ville": "Paris",
    "pays": "France",
    "insta": "https://instagram.com/yogawithhasnae"
   }
  },
  {
   "type": "Feature",
   "geometry": {
    "type": "Point",
    "coordinates": [
     1.92396,
     48.76806
    ]
   },
   "properties": {
    "nom": "Philomène B.",
    "ini": "PB",
    "ville": "Maurepas",
    "pays": "France",
    "insta": "https://instagram.com/philoup.bui"
   }
  },
  {
   "type": "Feature",
   "geometry": {
    "type": "Point",
    "coordinates": [
     1.45692,
     43.43461
    ]
   },
   "properties": {
    "nom": "Elodie D.",
    "ini": "ED",
    "ville": "Venerque",
    "pays": "France",
    "insta": "https://instagram.com/lonaya_anticoachbienetre"
   }
  },
  {
   "type": "Feature",
   "geometry": {
    "type": "Point",
    "coordinates": [
     5.78821,
     50.47498
    ]
   },
   "properties": {
    "nom": "Valentine A.",
    "ini": "VA",
    "ville": "La Reid",
    "pays": "Belgique",
    "site": "https://yogabytoey.odoo.com/?utm_id=97759_v0_s00_e0_tv3&fbclid=IwVERDUASNP-xleHRuA2FlbQIxMABzcnRjBmFwcF9pZAo2NjI4NTY4Mzc5AAEeJaQLfxxPfQgYryzyfj0U3KeS5jSDFXy0sLc-4ZmcG08d7RcfF0iDkrctA1E_aem_VonOHZG625xeaApZ2_rYqw",
    "insta": "https://instagram.com/yogabytoey",
    "ico": "icons/recdpOY4D94Q4OmY3.ico"
   }
  },
  {
   "type": "Feature",
   "geometry": {
    "type": "Point",
    "coordinates": [
     4.13503,
     50.67356
    ]
   },
   "properties": {
    "nom": "Teresa A.",
    "ini": "TA",
    "ville": "Rebecq",
    "pays": "Belgique",
    "site": "https://www.gayo-yoga.be",
    "insta": "https://instagram.com/teresa_gayo_yoga",
    "ico": "icons/receCRpFIIFYvYgAA.ico"
   }
  },
  {
   "type": "Feature",
   "geometry": {
    "type": "Point",
    "coordinates": [
     4.77602,
     51.58878
    ]
   },
   "properties": {
    "nom": "Elodie L.",
    "ini": "EL",
    "ville": "Breda",
    "pays": "Pays Bas",
    "insta": "https://instagram.com/elol1991"
   }
  },
  {
   "type": "Feature",
   "geometry": {
    "type": "Point",
    "coordinates": [
     -4.49774,
     48.40644
    ]
   },
   "properties": {
    "nom": "Clech C.",
    "ini": "CC",
    "ville": "Brest",
    "pays": "France",
    "site": "https://www.escale-yoga.fr/"
   }
  },
  {
   "type": "Feature",
   "geometry": {
    "type": "Point",
    "coordinates": [
     1.78872,
     48.91212
    ]
   },
   "properties": {
    "nom": "Maelle G.",
    "ini": "MG",
    "ville": "Jumeauville",
    "pays": "France",
    "insta": "https://instagram.com/maellegrvl"
   }
  },
  {
   "type": "Feature",
   "geometry": {
    "type": "Point",
    "coordinates": [
     2.347,
     48.859
    ]
   },
   "properties": {
    "nom": "Marine G.",
    "ini": "MG",
    "ville": "Paris",
    "pays": "France",
    "site": "https://marinegirost.fr",
    "ico": "icons/rechHeNYow08oSeOT.png"
   }
  },
  {
   "type": "Feature",
   "geometry": {
    "type": "Point",
    "coordinates": [
     -52.33736,
     4.82617
    ]
   },
   "properties": {
    "nom": "Mélanie E.",
    "ini": "ME",
    "ville": "Matoury",
    "pays": "Guyane française",
    "insta": "https://instagram.com/yoginipeyi"
   }
  },
  {
   "type": "Feature",
   "geometry": {
    "type": "Point",
    "coordinates": [
     3.14829,
     50.63763
    ]
   },
   "properties": {
    "nom": "Sarah T.",
    "ini": "ST",
    "ville": "Villeneuve d'ascq",
    "pays": "France",
    "insta": "https://instagram.com/sarah.mouvement"
   }
  },
  {
   "type": "Feature",
   "geometry": {
    "type": "Point",
    "coordinates": [
     2.20139,
     49.05127
    ]
   },
   "properties": {
    "nom": "Caroline L.",
    "ini": "CL",
    "ville": "FRÉPILLON",
    "pays": "France",
    "insta": "https://instagram.com/yognrose"
   }
  },
  {
   "type": "Feature",
   "geometry": {
    "type": "Point",
    "coordinates": [
     3.28745,
     49.8474
    ]
   },
   "properties": {
    "nom": "Julien B.",
    "ini": "JB",
    "ville": "Saint-Quentin",
    "pays": "France",
    "site": "https://neurohypnose.fr",
    "ico": "icons/reclgyDmWDsHemvqH.png"
   }
  },
  {
   "type": "Feature",
   "geometry": {
    "type": "Point",
    "coordinates": [
     -0.58788,
     44.85189
    ]
   },
   "properties": {
    "nom": "Marion C.",
    "ini": "MC",
    "ville": "Bordeaux",
    "pays": "France",
    "insta": "https://instagram.com/marion.wild.yoga"
   }
  },
  {
   "type": "Feature",
   "geometry": {
    "type": "Point",
    "coordinates": [
     5.405,
     43.282
    ]
   },
   "properties": {
    "nom": "Maëva B.",
    "ini": "MB",
    "ville": "Marseille",
    "pays": "France",
    "site": "https://maevaboldron.com",
    "insta": "https://instagram.com/maevaboldron",
    "ico": "icons/recmG6nr0h3KvJn8s.ico"
   }
  },
  {
   "type": "Feature",
   "geometry": {
    "type": "Point",
    "coordinates": [
     2.347,
     48.859
    ]
   },
   "properties": {
    "nom": "Sandra L.",
    "ini": "SL",
    "ville": "Paris",
    "pays": "France",
    "site": "https://sandralarue.com",
    "ico": "icons/recmmwDTV3lDkjPCE.png"
   }
  },
  {
   "type": "Feature",
   "geometry": {
    "type": "Point",
    "coordinates": [
     3.10094,
     50.67684
    ]
   },
   "properties": {
    "nom": "Charlotte B.",
    "ini": "CB",
    "ville": "Marcq-en-Barœul",
    "pays": "France",
    "insta": "https://instagram.com/charlottebeseme"
   }
  },
  {
   "type": "Feature",
   "geometry": {
    "type": "Point",
    "coordinates": [
     -1.63324,
     49.62868
    ]
   },
   "properties": {
    "nom": "Camille H.",
    "ini": "CH",
    "ville": "Cherbourg-en-Cotentin",
    "pays": "France",
    "site": "https://www.alignee-yoga.com",
    "insta": "https://instagram.com/aligne.e_",
    "ico": "icons/recn3cJ4bdlkQniBy.png"
   }
  },
  {
   "type": "Feature",
   "geometry": {
    "type": "Point",
    "coordinates": [
     7.25531,
     43.71273
    ]
   },
   "properties": {
    "nom": "Avi G.",
    "ini": "AG",
    "ville": "Nice",
    "pays": "France",
    "insta": "https://instagram.com/avi.dalia"
   }
  },
  {
   "type": "Feature",
   "geometry": {
    "type": "Point",
    "coordinates": [
     2.347,
     48.859
    ]
   },
   "properties": {
    "nom": "Marine D.",
    "ini": "MD",
    "ville": "Paris",
    "pays": "France",
    "site": "https://www.a-soi.com",
    "insta": "https://instagram.com/a.soi.yoga",
    "ico": "icons/recnvTp12X5xWEhYr.ico"
   }
  },
  {
   "type": "Feature",
   "geometry": {
    "type": "Point",
    "coordinates": [
     -1.41253,
     46.67085
    ]
   },
   "properties": {
    "nom": "Prescillia A.",
    "ini": "PA",
    "ville": "La Roche-sur-Yon",
    "pays": "France",
    "site": "https://www.prescilliayoga.com",
    "insta": "https://instagram.com/prescilliayoga",
    "ico": "icons/recoGQfflWeTOaiHH.ico"
   }
  },
  {
   "type": "Feature",
   "geometry": {
    "type": "Point",
    "coordinates": [
     2.20231,
     48.89809
    ]
   },
   "properties": {
    "nom": "Audrey B.",
    "ini": "AB",
    "ville": "Nanterre",
    "pays": "France",
    "site": "https://www.yurbanyoga.com",
    "insta": "https://instagram.com/yurbanyoga",
    "ico": "icons/recoPcN0oc9TUQApA.png"
   }
  },
  {
   "type": "Feature",
   "geometry": {
    "type": "Point",
    "coordinates": [
     -0.56161,
     47.46747
    ]
   },
   "properties": {
    "nom": "Laurie L.",
    "ini": "LL",
    "ville": "Angers",
    "pays": "France",
    "site": "https://www.laurieyoga.fr",
    "insta": "https://instagram.com/laurieyogafr",
    "ico": "icons/recohALyeY20ExBjz.png"
   }
  },
  {
   "type": "Feature",
   "geometry": {
    "type": "Point",
    "coordinates": [
     10.85944,
     47.82274
    ]
   },
   "properties": {
    "nom": "Marius W.",
    "ini": "MW",
    "ville": "86972 Altenstadt",
    "pays": "Deutschland",
    "site": "https://honigbaeryoga.com/",
    "ico": "icons/recpW6eupYxfd8rnc.png"
   }
  },
  {
   "type": "Feature",
   "geometry": {
    "type": "Point",
    "coordinates": [
     1.60351,
     50.5122
    ]
   },
   "properties": {
    "nom": "Renelle W.",
    "ini": "RW",
    "ville": "Le Touquet-Paris-Plage",
    "pays": "France",
    "site": "https://rebelyoga.my.canva.site/",
    "insta": "https://instagram.com/rebel_rebel_yoga",
    "ico": "icons/recpxz5xcF1Z2oe3K.png"
   }
  },
  {
   "type": "Feature",
   "geometry": {
    "type": "Point",
    "coordinates": [
     4.35249,
     50.84674
    ]
   },
   "properties": {
    "nom": "Tatiana G.",
    "ini": "TG",
    "ville": "Brussels",
    "pays": "Belgium",
    "site": "https://www.yogilati.com",
    "insta": "https://instagram.com/yogilati_",
    "ico": "icons/recqcuSQOpfZ8QDgj.png"
   }
  },
  {
   "type": "Feature",
   "geometry": {
    "type": "Point",
    "coordinates": [
     6.5944,
     49.25937
    ]
   },
   "properties": {
    "nom": "Celia Z.",
    "ini": "CZ",
    "ville": "Tromborn",
    "pays": "France",
    "insta": "https://instagram.com/mzelle_z"
   }
  },
  {
   "type": "Feature",
   "geometry": {
    "type": "Point",
    "coordinates": [
     -61.10022,
     14.6277
    ]
   },
   "properties": {
    "nom": "Ingrid B.",
    "ini": "IB",
    "ville": "Schoelcher",
    "pays": "Martinique",
    "insta": "https://instagram.com/joy.yoga_wi"
   }
  },
  {
   "type": "Feature",
   "geometry": {
    "type": "Point",
    "coordinates": [
     2.347,
     48.859
    ]
   },
   "properties": {
    "nom": "Maxime D.",
    "ini": "MD",
    "ville": "Paris",
    "pays": "France",
    "insta": "https://instagram.com/pelimaxime"
   }
  },
  {
   "type": "Feature",
   "geometry": {
    "type": "Point",
    "coordinates": [
     2.29783,
     48.75102
    ]
   },
   "properties": {
    "nom": "Valerie C.",
    "ini": "VC",
    "ville": "Antony",
    "pays": "France",
    "site": "https://www.vchavet.com",
    "insta": "https://instagram.com/vchavet",
    "ico": "icons/recshuhfmKLJJ2Rty.ico"
   }
  },
  {
   "type": "Feature",
   "geometry": {
    "type": "Point",
    "coordinates": [
     2.347,
     48.859
    ]
   },
   "properties": {
    "nom": "Laurine B.",
    "ini": "LB",
    "ville": "Paris",
    "pays": "France",
    "site": "https://loshakti.com/",
    "insta": "https://instagram.com/laurine.boulier",
    "ico": "icons/recstJ2GozvxOPU3D.ico"
   }
  },
  {
   "type": "Feature",
   "geometry": {
    "type": "Point",
    "coordinates": [
     3.22599,
     50.64692
    ]
   },
   "properties": {
    "nom": "Melanie N.",
    "ini": "MN",
    "ville": "Sailly-lez-Lannoy",
    "pays": "France",
    "insta": "https://instagram.com/mel.m.yoga"
   }
  },
  {
   "type": "Feature",
   "geometry": {
    "type": "Point",
    "coordinates": [
     6.55806,
     46.51008
    ]
   },
   "properties": {
    "nom": "Elodie G.",
    "ini": "EG",
    "ville": "St-Sulpice",
    "pays": "Suisse",
    "insta": "https://instagram.com/elodiegermain_17"
   }
  },
  {
   "type": "Feature",
   "geometry": {
    "type": "Point",
    "coordinates": [
     2.76827,
     50.2879
    ]
   },
   "properties": {
    "nom": "Céline G.",
    "ini": "CG",
    "ville": "Arras",
    "pays": "France",
    "insta": "https://instagram.com/celineandthemoon.fr"
   }
  },
  {
   "type": "Feature",
   "geometry": {
    "type": "Point",
    "coordinates": [
     2.20599,
     49.07715
    ]
   },
   "properties": {
    "nom": "Vanessa G.",
    "ini": "VG",
    "ville": "Mériel",
    "pays": "France",
    "insta": "https://instagram.com/aumness.studio"
   }
  },
  {
   "type": "Feature",
   "geometry": {
    "type": "Point",
    "coordinates": [
     5.03618,
     43.84879
    ]
   },
   "properties": {
    "nom": "Munier C.",
    "ini": "MC",
    "ville": "Cavaillon",
    "pays": "France",
    "insta": "https://instagram.com/clotilde_munier"
   }
  },
  {
   "type": "Feature",
   "geometry": {
    "type": "Point",
    "coordinates": [
     55.28304,
     -21.032
    ]
   },
   "properties": {
    "nom": "Elise G.",
    "ini": "EG",
    "ville": "SAINT PAUL",
    "pays": "La Réunion",
    "insta": "https://instagram.com/elisepermayoga"
   }
  },
  {
   "type": "Feature",
   "geometry": {
    "type": "Point",
    "coordinates": [
     12.42945,
     55.73375
    ]
   },
   "properties": {
    "nom": "Emilie V.",
    "ini": "EV",
    "ville": "Herlev",
    "pays": "Danemark",
    "insta": "https://instagram.com/home_mygoodness"
   }
  },
  {
   "type": "Feature",
   "geometry": {
    "type": "Point",
    "coordinates": [
     6.6327,
     46.52183
    ]
   },
   "properties": {
    "nom": "Laodicé R.",
    "ini": "LR",
    "ville": "Lausanne",
    "pays": "Suisse",
    "site": "https://www.laoanandayoga.com/",
    "insta": "https://instagram.com/lao_ananda_yoga",
    "ico": "icons/recwz5YhvjL2Wir5P.png"
   }
  },
  {
   "type": "Feature",
   "geometry": {
    "type": "Point",
    "coordinates": [
     2.347,
     48.859
    ]
   },
   "properties": {
    "nom": "Anita S.",
    "ini": "AS",
    "ville": "Paris",
    "pays": "France",
    "insta": "https://instagram.com/_anitash_"
   }
  },
  {
   "type": "Feature",
   "geometry": {
    "type": "Point",
    "coordinates": [
     2.32004,
     48.85889
    ]
   },
   "properties": {
    "nom": "Anne G.",
    "ini": "AG",
    "ville": "PARIS",
    "pays": "FRANCE"
   }
  },
  {
   "type": "Feature",
   "geometry": {
    "type": "Point",
    "coordinates": [
     7.21406,
     47.34895
    ]
   },
   "properties": {
    "nom": "Laura B.",
    "ini": "LB",
    "ville": "Boécourt",
    "pays": "Suisse",
    "site": "https://www.ahimsalaurayoga.ch",
    "insta": "https://instagram.com/ahimsa_laurayoga",
    "ico": "icons/recyRShQghrhnVIMY.png"
   }
  },
  {
   "type": "Feature",
   "geometry": {
    "type": "Point",
    "coordinates": [
     -4.01611,
     5.32036
    ]
   },
   "properties": {
    "nom": "Lea G.",
    "ini": "LG",
    "ville": "Abidjan",
    "pays": "Côte d'Ivoire",
    "insta": "https://instagram.com/leagnmt"
   }
  }
 ]
}